idx,company,Title,notes,tax3,tax2,tax1,Enterprise/Sector Type,city,Country,Continent: Asia,website,lat,lng
0,Abby Bonita,Head of Sustainability Reporting and Compliance,MERALCO,Under 30,Female,For-Profit,General,Manila,Philippines,Asia,https://www.linkedin.com/in/abby-bonita-b7931365/,14.599512,120.98422
1,Abdul Muqeet,Activist (The Paper Bag Boy),,Under 30,Male,Non-Profit,NGO,Abu Dhabi,UAE,Asia,https://www.instagram.com/thepaperbagboy/,24.453884,54.377344
2,Abigail Dillen,President,Earthjustice,Over 30,Female,Non-Profit,NGO,"San Francisco, CA",USA,North America,https://www.linkedin.com/in/abbie-dillen/ ,37.77493,-122.419416
3,Adair Turner,Chair,The Energy Transitions Commission,Over 30,Male,Non-Profit,NGO,London,United Kingdom,Europe,https://twitter.com/adairturneruk?lang=en,51.507218,-0.127586
4,Adnan Amin,Former Director General,International Renewable Energy Agency (IRENA),Over 30,Male,Non-Profit,Government,"Cambridge, MA",USA,North America,https://www.linkedin.com/in/adnan-amin/,42.373616,-71.109734
5,Adrian Fernández Bremauntz,CEO,Iniciativa Climática de México,Over 30,Male,Non-Profit,Energy/Environmental,Mexico City,Mexico,North America,https://www.linkedin.com/in/adrian-fern%C3%A1ndez-284a4930/?originalSubdomain=mx,19.432608,-99.133208
6,Ahmed AlJameel,International Climate & Energy Policy Analyst at Ministry of Energy,Ministry of Energy in Saudi Arabia,Under 30,Male,Non-Profit,Government,Riyadh,Saudi Arabia,Asia,https://www.linkedin.com/in/ahmed-aljameel-msc-394b4649/,24.713552,46.675296
7,Ajay Mathur,Director General,The Energy and Resources Institute,Over 30,Male,Non-Profit,NGO,New Delhi,India,Asia,https://www.linkedin.com/in/international-solar-alliance/,28.613939,77.209021
8,Ajei Gopal,Chief Executive Officer,Ansys,Over 30,Male,For-Profit,General,"Pittsburg, PA",USA,North America,https://www.linkedin.com/in/ajeigopal/,40.440625,-79.995886
9,Akissa Bahri,"Former Minister, Professor","Agriculture, Water Resources and Fisheries/National Agricultural Institute of Tanzania",Over 30,Female,Non-Profit,Government,Tunis,Tunisia,Africa,https://wle.cgiar.org/cosai/commissioners/akissa-bahri https://inweh.unu.edu/governance/iac/akissa-bahri/,36.806495,10.181532
10,Al Gore,Chairman,Generation Investment Management,Over 30,Male,For-Profit,Energy/Environmental,"Nashville, TN",USA,North America,https://www.algore.com/,36.162664,-86.781602
11,Alan AtKisson,"Assistant Director-General and Director, Department of Partnership and Innovation",Sida,Over 30,Male,Non-Profit,Government,Stockholm,Sweden,Europe,https://www.linkedin.com/in/alanatkisson/,59.329324,18.068581
12,Alberto  Curamil,Leader and Spokesperson,Alianza Territorial Mapuche,Over 30,Male,Non-Profit,Activist,Aracaunia,Chile,South America,https://www.goldmanprize.org/recipient/alberto-curamil/,-38.948921,-72.331113
13,Alberto Carrillo Pineda,Director of Science-Based Targets Initiative,CDP,Over 30,Male,Non-Profit,NGO,Berlin,Germany,Europe,https://www.linkedin.com/in/acarrillopineda/?originalSubdomain=de,52.520007,13.404954
14,Alex Amato,Head Of Sustainability at Qatar Green Building Council,QGBC,Over 30,Male,Non-Profit,Energy/ sustainability,Doha,Qatar,Asia,https://www.linkedin.com/in/alamato/,25.285447,51.53104
15,Alexander Fleischanderl,Head of ECO Solutions,Primetals Technologies,Over 30,Male,For-Profit,Energy/Environmental,Grünau im Almtal,Austria,Europe,https://www.linkedin.com/in/di-dr-alexander-fleischanderl-b0757514/,47.853266,13.956244
16,Alexander Nick,Head of Sustainability Strategy and Management,BMW,Over 30,Male,For-Profit,General,Munich,Germany,Europe,https://www.linkedin.com/in/alnick/,48.135125,11.58198
17,Benji Backer,Founder and President,American Conservation Coalition,Under 30,Male,Non-Profit,NGO,"Appleton, WI",USA,North America,https://www.linkedin.com/in/benjibacker/,44.261931,-88.415385
18,Alexandra Palt,Executive Vice President and Chief Sustainability Officer,L'Oreal,Over 30,Female,For-Profit,General,Paris,France,Europe,https://www.linkedin.com/in/alexandra-palt-953133a/,48.856614,2.352222
19,Evan Hynes,Co-Founder,Climatebase,Under 30,Male,Non-Profit,NGO,"Berkeley, CA",USA,North America,https://www.linkedin.com/in/evanhynes/,37.871523,-122.273042
20,Alexis Olans Haass,Chief Sustainability Officer,Arcadis,Over 30,Female,For-Profit,Built Environment,Munich,Germany,Europe,https://www.linkedin.com/in/alexisolanshaass/?originalSubdomain=de,48.135125,11.58198
21,Varshini Prakash,"Co-founder, Executive Director",Sunrise Movement,Under 30,Female,Non-profit,Activist,"Boston, MA",USA,North America,https://twitter.com/VarshPrakash?ref_src=twsrc%5Egoogle%7Ctwcamp%5Eserp%7Ctwgr%5Eauthor,42.360082,-71.05888
22,Alhassan Baba Muniri,Co-Founder,Recycle Up! Ghana,Under 30,Male,Non-Profit,NGO,Berlin,Germany,Europe,https://www.linkedin.com/in/alhassan-baba-muniru-46b55828/,52.520007,13.404954
23,Ali A. Al-Heji,Manager of Energy at NEOM,NEOM,Under 30,Male,Non-Profit,Government,"Neom, Tabuk",Saudi Arabia,Asia,https://www.linkedin.com/in/alheji/?miniProfileUrn=urn%3Ali%3Afs_miniProfile%3AACoAAAXtMEYBBcuMhUT2lIWDUdAoPNHnI44jQz4,28.391089,36.568401
24,Alicia Seiger,"Managing Director, Sustainable Finance Initiative, Precourt Institute for Energy",Stanford (on board of Ceres),Over 30,Female,Non-Profit,University,"San Francisco, CA",USA,North America,https://www.linkedin.com/in/aseiger/ ,37.77493,-122.419416
25,Alicia Silvia Villanueva,"LEED Fellow, Founder and CEO",Revitiliza Consultores,Over 30,Female,For-Profit,"Architecture, Design, Engineering",Mexico City,Mexico,North America,https://www.linkedin.com/in/aliciasilvasynergy/,19.432608,-99.133208
26,Alisa Gravitz,Chief Executive Officer,Green America,Over 30,Female,Non-Profit,NGO,"Washington, D.C.",USA,North America,https://greenamerica.org/people/alisa-gravitz,38.907192,-77.036871
27,Allison Wolff,CEO,Vibrant Planet,Over 30,Female,For-Profit,Energy/Environmental,"Incline Village, NV",USA,North America,https://www.linkedin.com/in/allisonclairwolff/,39.249683,-119.952685
28,Alvaro Sanchez,Environmental Equity Director,The Greenlining Institute,Over 30,Male,Non-Profit,NGO,"San Francisco, CA",USA,North America,https://www.linkedin.com/in/alvarossanchez/,37.77493,-122.419416
29,Alwyn  Smith,Chairman,Southern African Alternative Energy Association (SAAEA),Over 30,Male,Non-Profit,NGO,Johannesburg,South Africa,Africa,https://www.linkedin.com/in/saaea/,-26.204103,28.047305
30,Amar Inamdar,Managing Director,KawiSafi Ventures,Over 30,Male,For-Profit,General,Nairobi,Kenya,Africa,https://www.linkedin.com/in/amarinamdar/,-1.292066,36.821946
31,Amit Saraogi,Co-Founder and CEO,Oorja Development Solutions Ltd.,Over 30,Male,For-Profit,Energy/Environmental,Dehli,India,Asia,https://www.linkedin.com/in/amit-saraogi-4427445/?originalSubdomain=in,28.704059,77.10249
32,Amory Lovins,Co Founder and Chairman Emeritus,Rocky Mountain Institute,Over 30,Male,Non-Profit,"NGO/Architecture, Design, Engineering","Basalt, CO",USA,North America,,39.372481,-107.078501
33,Amruta Kshemkalyani,Founder,Sustainability Tribe,Over 30,Female,For-Profit,Social Entrepreneur,Abu Dhabi,UAE,Asia,https://www.linkedin.com/in/amrutakshemkalyani/,24.453884,54.377344
34,Amy Hunter,Global Head of Sustainability,BlackRock,Over 30,Female,For-Profit,General,"San Francisco, CA",USA,North America,https://www.linkedin.com/in/amy-hunter-1307448/,37.77493,-122.419416
35,Amy Mount,Senior Associate of UK Programme,European Climate Foundation,Under 30,Female,Non-Profit,NGO,London,United Kingdom,Europe,https://www.linkedin.com/in/amy-mount-5a434148/,51.507218,-0.127586
36,Ana Gabriela del Hierro Calvachi,Researcher,Instituto Nacional de Biodiversidad - INABIO,Under 30,Female,Non-Profit,Government,Quito ,Ecuador,South America,https://www.linkedin.com/in/adelhierrocalvachi/?originalSubdomain=ec,-0.180653,-78.467838
37,Anders Langworth,Founder,Bankers for Climate,Over 30,Male,Non-Profit,NGO,Stockholm,Sweden,Europe,https://www.linkedin.com/in/anders-langworth-725422a/,59.329324,18.068581
38,Anders Wijkman,Co-President,Club of Rome,Over 30,Male,Non-Profit,NGO,Stockholm,Sweden,Europe,https://www.linkedin.com/in/anders-wijkman-1456058/,59.329324,18.068581
39,Andrea Meza Murillo,Minister of Environment and Energy ,Government of Costa Rica,Over 30,Female,Non-Profit,Government,San Jose,Costa Rica,North America,https://www.unccd.int/sites/default/files/inline-files/Brief%20Biographical%20Note%20-%20Minister%20Andrea%20Meza%20Murrillo.pdf,37.338208,-121.886329
40,Andreas Feicht,State Secretary,German Federal Ministry for Economic Affairs and Energy,Over 30,Male,Non-Profit,Government,Berlin,Germany,Europe,https://www.bmwi.de/Redaktion/EN/Artikel/Curriculum-Vitae/curriculum-vitae-feicht.html https://www.bmwi.de/Redaktion/DE/Parlamentarische-Anfragen/2019/1-559.pdf?__blob=publicationFile&v=6,52.520007,13.404954
41,Andreas Merkl,President,Ocean Conservancy,Over 30,Male,Non-Profit,NGO,"Washington, D.C.",USA,North America,https://www.linkedin.com/in/andreas-merkl-75449377/ ,38.907192,-77.036871
42,Andrew Lever,Director of Policy and Innovation,Carbon Trust,Over 30,Male,Non-Profit,NGO,Edinburgh,United Kingdom,Europe,https://www.linkedin.com/in/andrew-lever-1a551a/,55.953252,-3.188267
43,Andrew Morlet,CEO,Ellen MacArthur Foundation,Over 30,Male,Non-Profit,NGO,London,United Kingdom,Europe,https://www.linkedin.com/in/amorlet/,51.507218,-0.127586
44,Andrew Sharpless,Chief Executive Officer,Oceana,Over 30,Male,Non-Profit,NGO,"Washington, D.C.",USA,North America,"https://oceana.org/about-oceana/people-partners/executive-committee/andrew-sharpless
https://www.linkedin.com/in/andrew-sharpless-8844a4b/",38.907192,-77.036871
45,Andrew Smith,"Sr. Manager, Global Energy Management and Sustainability",Cisco,Over 30,Male,For-Profit,General,"Boulder, CO",USA,North America,https://www.linkedin.com/in/andrew-smith-94ba585/,40.014986,-105.270546
46,Andrew Watterson,President and Founder; Former Head of Sustainability,Blue CSR Strategies; KeyBank,Over 30,Male,For-Profit,General,"Cleveland, OH",USA,North America,https://www.linkedin.com/in/andrew-watterson/,41.49932,-81.69436
47,Andy Karsner,Partner,Emerson Collective,Over 30,Male,For-Profit,Energy/Environmental,"Palo Alto, CA",USA,North America,https://www.linkedin.com/in/andy-karsner-3191952/,37.441883,-122.14302
48,Angela Wilkinson,Secretary General and CEO,World Energy Council,Over 30,Female,Non-Profit,NGO,Oxford,United Kingdom,Europe,https://www.linkedin.com/in/angela-wilkinson-6249343/,51.754816,-1.254367
49,Aniket Shah,Senior Advisor for Sustainable Finance,Sustainable Development Solutions Network,Over 30,Male,Non-Profit,NGO,"New York, NY",USA,North America,https://www.linkedin.com/in/aniket-shah-phd-360a3635/ ,40.712775,-74.005973
50,Aniruddha Dasgupta,Global Director,World Resources Institute Ross Center for Sustainable Cities,Over 30,Male,Non-Profit,Energy/Environmental,"Washington, D.C.",USA,North America,https://www.wri.org/profile/aniruddha-dasgupta,38.907192,-77.036871
51,Ankur Dhanuka,Deep Decarbonization Research Fellow with the Environment and Natural Resources Program,Harvard,Over 30,Male,Non-Profit,University,"Cambridge, MA",USA,North America,https://www.linkedin.com/in/ankur-dhanuka-744bbb28/,42.373616,-71.109734
52,Anne Simpson,Managing Investment Director for Board Governance and Sustainability,CalPERS,Over 30,Female,Non-Profit,Government,"Sacramento, CA",USA,North America,https://www.linkedin.com/in/anne-simpson-a3024328/,38.581572,-121.4944
53,Annette Verschuren,CEO and Chair; Co-Chair,NRStor Inc.; Smart Prosperity,Over 30,Female,For-Profit,Energy/Environmental,Toronto,Canada,North America,https://www.linkedin.com/in/annette-verschuren-14659b52/ ,43.653226,-79.383184
54,Annie Leonard,Executive Director,Greenpeace USA,Over 30,Female,Non-Profit,NGO,"Berkeley, CA",USA,North America,https://www.linkedin.com/in/annie-leonard-65a00333/,37.871523,-122.273042
55,Anthony Hobley,"Executive Director, Former CEO","Mission Possible Platform of World Economic Platform, Carbon Tracker Initiative",Over 30,Male,Non-Profit,NGO,London,United Kingdom,Europe,https://www.linkedin.com/in/anthony-hobley/,51.507218,-0.127586
56,Antonio Nobre,Researcher,National Institute of Amazonian Research,Over 30,Male,Non-Profit,Government,São José dos Campos,Brazil,South America,https://believe.earth/en/antonio-nobre-a-scientist-advocates-for-the-amazon/,-23.21984,-45.891566
57,Xiangkun (Elvis) Cao,MIT Climate & Sustainability Consortium Impact Fellow,,Under 30,Male,Non-Profit,,"Boston, MA",USA,North America,https://www.linkedin.com/in/xiangkun-elvis-cao/?miniProfileUrn=urn%3Ali%3Afs_miniProfile%3AACoAABGYeU4BBddA4zIpSXAcA2ZUelcqtO6kDd8,42.360082,-71.05888
58,Assaad Razzouk,Chief Executive Officer at Gurīn Energy,Gurīn Energy,Over 30,Male,For-Profit,Energy,Singapore,Singapore,Asia,https://www.linkedin.com/in/assaadrazzouk/,1.352083,103.819836
59,Audrey Lee,Co-Chair,Clean Energy for Biden,Over 30,Female,Non-Profit,NGO,"San Francisco, CA",USA,North America,https://www.linkedin.com/in/jaudreylee/ ,37.77493,-122.419416
60,Ban Ki-Moon,8th Secretary General,United Nations,Over 30,Male,Non-Profit,Government,Seoul,South Korea,Asia,https://www.linkedin.com/in/bankimoon/,37.566535,126.977969
61,Barbara Buchner,Global Managing Director,Climate Policy Initiative,Over 30,Female,Non-Profit,Energy/Environmental,"San Francisco, CA",USA,North America,https://www.linkedin.com/in/barbara-buchner-3baaa86/,37.77493,-122.419416
62,Barney Schauble,"Head of Labs, Chairman; Director and Chair",Nephila Climate; Ceres,Over 30,Male,For-Profit,Energy/Environmental,"Larkspur, CA",USA,North America,https://www.linkedin.com/in/bschauble/,37.934092,-122.535254
63,Bea Perez,Senior Vice President and Sustainability Officer,Coca-Cola Company,Over 30,Female,For-Profit,General,"Decatur, GA",USA,North America,https://www.linkedin.com/in/bea-perez-8225919/,33.774828,-84.296312
64,May Boeve,Executive Director,350.org,Under 30,Female,Non-Profit,NGO,"Brooklyn, NY",USA,North America,https://350.org/team/,40.678178,-73.944158
65,Bertha Zúñiga Cáceres,General Coordinator,Civic Council of Popular and Indigenous Organizations of Honduras ,Under 30,Female,Non-Profit,Activist,La Esperanza,Honduras,North America,https://www.equaltimes.org/environmentalists-in-honduras?lang=en#.YNzDR-hKhPZ,38.69367,-75.388038
66,Bertrand Piccard,Chairman,Solar Impulse Foundation,Over 30,Male,Non-Profit,NGO,Vaud,Switzerland,Europe,https://www.linkedin.com/in/bertrandpiccard/,46.561314,6.536765
67,Bill Davis,Founder & Managing Director,Stance Capital ,Over 30,Male,For-Profit,General,"Winchester, MA",USA,North America,https://www.linkedin.com/in/bill-davis-90a7b91/,42.452303,-71.136996
68,Bill Gates,Co-chair; Co-Founder,Bill and Melinda Gates Foundation; Microsoft,Over 30,Male,Non-Profit,NGO,"Seattle, WA",USA,North America,https://www.linkedin.com/in/williamhgates/,47.60621,-122.332071
69,Bill Maclay,Founder and Principal,Maclay Architects,Over 30,Male,For-Profit,"Architecture, Design, Engineering","Waitsfield, VT",USA,North America,https://www.linkedin.com/in/bill-maclay-a89b352/,44.192639,-72.779848
70,Bill McDonough,-Holds a variety of roles-,"McDonough Innovation, William McDonough + Partners",Over 30,Male,For-Profit,"NGO/Architecture, Design, Engineering","Charlottesville, VA",USA,North America,https://www.linkedin.com/in/william-mcdonough/,38.029306,-78.476678
71,Bill McKibben,Author,,Over 30,Male,Non-profit,Activist,"Bristol, VT",USA,North America,https://www.linkedin.com/in/bill-mckibben-6174131b7/,44.133391,-73.079008
72,Bill Weihl,Founder and Executive Director,ClimateVoice,Over 30,Male,Non-Profit,NGO,"San Francisco, CA",USA,North America,https://www.linkedin.com/in/bweihl/,37.77493,-122.419416
73,Bin Duan,Director,Beijing Carbon-Change Environment Research Center,Over 30,Male,Non-Profit,NGO,"Dongcheng District, Beijing",China,Asia,https://www.linkedin.com/in/bin-duan-036115a2/,39.928353,116.416357
74,Bob Mumgaard,CEO,Commonwealth Fusion Systems,Over 30,Male,For-Profit,Energy/Environmental,"Boston, MA",USA,North America,https://www.linkedin.com/in/mumgaard/,42.360082,-71.05888
75,Bren Smith,Co-Executive Director and Co-Founder,GreenWave,Over 30,Male,Non-Profit,NGO,"Long island Sound, CT",USA,North America,https://www.greenwave.org/team ,41.074845,-72.946057
76,Brendan Hammond,Project Director at Asian Renewable Energy Hub,Asian Renewable Energy Hub,Over 30,Male,Non-Profit,Government,Perth,Australia,Australia/Oceania,https://www.linkedin.com/in/brendanhammond1/?originalSubdomain=au,-31.952312,115.861309
77,Brett Jenks,President and Chief Executive Officer,Rare,Over 30,Male,Non-Profit,NGO,"Washington, D.C.",USA,North America,https://www.linkedin.com/in/brett-jenks-9200196/ ,38.907192,-77.036871
78,Brian Bartholomeusz,Chief Executive Officer,TomKat Center for Sustainable Energy,Over 30,Male,Non-Profit,NGO,"Palo Alto, CA",USA,North America,https://www.linkedin.com/in/brianbartholomeusz/ ,37.441883,-122.14302
79,Brian Nash,Director of Sustainability,Ingredion Incorporated,Over 30,Male,For-Profit,Energy/Environmental,"Indianapolis, IN",USA,North America,https://www.linkedin.com/in/brian-nash-05a57842/,39.768403,-86.158068
80,Bryant  Terry,Author,Ten Speed Press,Over 30,Male,For-Profit,General,"San Francisco, CA",USA,North America,https://www.linkedin.com/in/bryant-terry-54b9033/,37.77493,-122.419416
81,Cara Chacon,Former Vice President of Social & Environmental Responsibility,Patagonia,Over 30,Female,For-Profit,General,"Los Angeles, CA",USA,North America,https://www.linkedin.com/in/carachacon/,34.052234,-118.243685
82,Cardinal Peter Turkson,Author,Laudato Si,Over 30,Male,Non-Profit,Energy/Environmental,Accra,Ghana,Africa,https://press.vatican.va/content/salastampa/en/documentation/cardinali_biografie/cardinali_bio_turkson_pka.html,5.603717,-0.186964
83,Carl Pendragon,Founder and CEO,Skymining,Over 30,Male,For-Profit,CC/Circular Economy,Stockholm,Sweden,Europe,https://www.linkedin.com/in/carl-pendragon-b4212a68/,59.329324,18.068581
84,Carlos Manuel Rodriguez,CEO and Chairperson,Global Environment Facility,Over 30,Male,Non-Profit,NGO,San Jose,Costa Rica,North America,https://www.linkedin.com/in/carlos-manuel-rodriguez-7442581b6/ ,37.338208,-121.886329
85,Carol-Ann Brown,President,The Delphi Group,Over 30,Female,For-Profit,Energy/Environmental,Calgary,Canada,North America,https://www.linkedin.com/in/carol-ann-brown-37512923/?originalSubdomain=ca,51.044733,-114.071883
86,Carter Roberts,President and Chief Executive Officer,World Wildlife Fund,Over 30,Male,Non-Profit,NGO,"Washington, D.C.",USA,North America,https://www.linkedin.com/in/carter-roberts-09879331/,38.907192,-77.036871
87,Cassie Flynn,Strategic Advisor on Climate Change,United Nations Development Programme,Over 30,Female,Non-Profit,Government,"New York, NY",USA,North America,https://www.linkedin.com/in/cassieflynn/ ,40.712775,-74.005973
88,Catherine Chevauché,Climate and Circular Economy Manager,SUEZ,Over 30,Female,For-Profit,Energy/Environmental,Paris,France,Europe,https://www.linkedin.com/in/catherine-chevauch%C3%A9-9554a5a3/,48.856614,2.352222
89,Catherine Grenier,President and CEO,Nature Conservancy Canada,Over 30,Female,Non-Profit,NGO,Quebec,Canada,North America,https://www.linkedin.com/in/catherine-grenier-448278108/ ,46.813878,-71.207981
90,Cathy Zoi,CEO,EVgo,Over 30,Female,For-Profit,Energy/Environmental,"Los Angeles, CA",USA,North America,https://www.linkedin.com/in/cathy-zoi-60016a60/,34.052234,-118.243685
91,Chad Nelsen,Chief Executive Officer,Surfrider Foundation,Over 30,Male,Non-Profit,NGO,"Orange County, CA",USA,North America,https://www.linkedin.com/in/chadnelsen/#:~:targetText=Chad%20Nelsen%20%2D%20Chief%20Executive%20Officer%20%2D%20Surfrider%20Foundation%20%7C%20LinkedIn ,33.717471,-117.831143
92,Charles Perry,"Special Projects and Aviation, High Level Climate Champion","Sustainable Future for All, COP26",Over 30,Male,Non-Profit,NGO,London,United Kingdom,Europe,https://www.linkedin.com/in/charles-perry-3742932/,51.507218,-0.127586
93,Mari Copeny,"Little Miss Flint, Founder",Wednesdays For Water,Under 30,Female,Non-Profit,,"Flint, MI",USA,North America,https://www.maricopeny.com/,43.012527,-83.687456
94,Charlotte McIntyre,Senior Associate,Pinsent Masons,Over 30,Female,For-Profit,General,London,United Kingdom,Europe,https://www.linkedin.com/in/charlotte-mcintyre-ba99b489/?originalSubdomain=uk,51.507218,-0.127586
95,Cheryl Dorsey,President,Echoing Green,Over 30,Female,Non-Profit,NGO,"Washington, D.C.",USA,North America,https://www.linkedin.com/in/cheryl-dorsey/,38.907192,-77.036871
96,Miranda Wang,Co-Founder and CEO,Novoloop,Under 30,Female,For-Profit,Energy/Environmental,"Menlo Park, CA",USA,North America,https://www.linkedin.com/in/mirandaywwang/,37.45296,-122.181725
97,Chrissa Pagitsas,Former VP and Head of ESG,Fannie Mae,Over 30,Female,For-Profit,General,"Washington, D.C.",USA,North America,https://www.linkedin.com/in/chrissa-pagitsas/,38.907192,-77.036871
98,Christian Berg,University Lecturer,Kiel University,Over 30,Male,Non-Profit,University,Heikendorf,Germany,Europe,https://www.linkedin.com/in/prof-dr-christian-berg-38150511/?locale=en_US,54.379377,10.211254
99,Christian Kroll,Founder,Ecosia,Over 30,Male,For-Profit,Tech/Internet,Berlin,Germany,Europe,https://www.linkedin.com/in/christian-kroll-b2aa06b/,52.520007,13.404954
100,Christian Pho Duc,Managing Director of H2 Projects,SmartEnergy Invest AG,Over 30,Male,For-Profit,Energy/Environmental,Munich,Germany,Europe,https://www.linkedin.com/in/christian-pho-duc-9519472/,48.135125,11.58198
101,Christiana Figueres,Founding Partner,Global Optimism,Over 30,Female,Non-Profit,NGO,San Jose,Costa Rica,North America,https://www.linkedin.com/in/christianafigueres/ https://earthoptimism.si.edu/about/2020-summit/speakers/christiana-figueres/,37.338208,-121.886329
102,Christine Brunel-Ligneau,Head of Sustainable Agriculture,Bayer AG CropScience Division,Over 30,Female,For-Profit,Food Science,Düsseldorf,Germany,Europe,https://www.linkedin.com/in/christine-brunel-ligneau/?originalSubdomain=de,51.227741,6.773456
103,Christopher James,Founder & Executive Chairman,Engine No. 1,Over 30,Male,For-Profit,Finance,"San Francisco, CA",USA,North America,NEED LINK,37.77493,-122.419416
104,Christopher Miller,Activism Manager; Former Director of Sustainability,Ben and Jerry's; Seventh Generation,Over 30,Male,For-Profit,General,"Burlington, VA",USA,North America,https://www.linkedin.com/in/christopher-miller-6bb5b215/,44.475882,-73.212072
105,Cindy Ortega,Founder and CEO,Blue Heron Strategies,Over 30,Female,For-Profit,Energy/Environmental,"Las Vegas, NV",USA,North America,https://www.linkedin.com/in/cindy-ortega-38642898/,36.169941,-115.13983
106,Clair Mack,Chief Executive,Scottish Renewables,Over 30,Female,Non-Profit,NGO,Glasgow,United Kingdom,Europe,https://www.linkedin.com/in/claire-mack-50a93814/,55.864237,-4.251806
107,Claire O'Neill,"Managing Director of Climate and Energy, Former President","World Business Council, COP series",Over 30,Female,Non-Profit,NGO,London,United Kingdom,Europe,https://www.linkedin.com/in/clairefordevizes/,51.507218,-0.127586
108,Claudia Szerakowski,Circular Fashion Consultant,Eco Intelligent Growth,Under 30,Female,For-Profit,Energy/Environmental,Barcelona,Spain,Europe,https://www.linkedin.com/in/cszerakowski/,36.088106,-95.924131
109,Clover Hogan,"Climate Activist, Executive Director and Founder",Force of Nature,Under 30,Female,Non-Profit,NGO,London,United Kingdom,Europe,https://www.linkedin.com/in/cloverhogan/,51.507218,-0.127586
110,Colleen Vien,Sustainability Director,Timberland,Over 30,Female,For-Profit,General,"Beverely, MA",USA,North America,https://www.linkedin.com/in/colleen-vien/,42.558428,-70.880049
111,Collin O'Mara,President and Chief Executive Officer,National Wildlife Federation,Over 30,Male,Non-Profit,NGO,"Reston, VA",USA,North America,https://www.linkedin.com/in/collin-o-mara-536ba76/,38.958631,-77.357003
112,Connie Hedegaard,Chair,Organisation for Economic Co-Operation and Development (OECD) Round Table on Sustainabilt Development,Over 30,Female,Non-Profit,NGO,Copenhagen,Denmark,Europe,https://conniehedegaard.com/,55.676097,12.568337
113,Corey Brinkema,Chief Executive Officer,Forest Stewardship Council,Over 30,Male,Non-Profit,NGO,"Minneapolis, MN",USA,North America,https://www.linkedin.com/in/corey-brinkema-b529338/ ,44.977753,-93.265011
114,Cristian Samper,President and Chief Executive Officer,Wildlife Conservation Society,Over 30,Male,Non-Profit,NGO,"New York, NY",USA,North America,"https://www.wcs.org/about-us/management#management
https://www.linkedin.com/in/cristian-samper-970898114/ ",40.712775,-74.005973
115,Cristina Gamboa,CEO,World Green Building Council,Over 30,Female,Non-Profit,"NGO/Architecture, Design, Engineering",London,United Kingdom,Europe,https://www.linkedin.com/in/cristina-gamboa-4a21b736/,51.507218,-0.127586
116,Curtis Ravenel,"Finance Advisor, Senior Advisor to Mark Carney",COP26 ,Over 30,Male,Non-Profit,Government,"New York, NY",USA,North America,https://www.linkedin.com/in/curtis-ravenel/,40.712775,-74.005973
117,Cyane Dandridge,Executive Director,Strategic Energy Innovations (SEI),Over 30,Female,Non-Profit,NGO,"San Rafael, CA",USA,North America,https://www.linkedin.com/in/cyane-dandridge-6a86a0/,37.973535,-122.531087
118,Cynthia Hellen,Social Entrepreneur,,Over 30,Female,Non-Profit,NGO,"New York, NY",USA,North America,https://www.cynthiahellen.com/bio,40.712775,-74.005973
119,Damilola Ogunbiyi,"CEO and UN SRSG for Sustainable Energy for All, Co-Chair of UN-Energy","Sustainable Energy for All, UN-Energy",Over 30,Female,Non-Profit,Government,Vienna,Austria,Europe,https://www.linkedin.com/in/damilola-ogunbiyi/,48.208174,16.373819
120,Daniel Kammen,Professor of Energy,UC Berkeley; Renewable and Appropriate Energy Lab,Over 30,Male,Non-Profit,University,"Berkeley, CA",USA,North America,https://www.linkedin.com/in/daniel-kammen-4217346/ ,37.871523,-122.273042
121,Daniel Schrag,Director of the Harvard University Center for the Environment.,Harvard University,Over 30,Male,Non-Profit,University,"Cambridge, MA",USA,North America,https://www.linkedin.com/in/daniel-schrag-6775b58/,42.373616,-71.109734
122,Daniel Schwartz,Director of Clean Energy Institute,University of Washington,Over 30,Male,Non-Profit,University,"Seattle, WA",USA,North America,https://www.linkedin.com/in/dt-schwartz/,47.60621,-122.332071
123,Daniele Horton,Founder and President,Verdani Partners,Over 30,Female,For-Profit,Energy/Environmental,"San Diego, CA",USA,North America,https://www.linkedin.com/in/danielehorton/,32.715738,-117.161084
124,Danny Kennedy,Chief Energy Officer,New Energy Nexus,Over 30,Male,Non-Profit,NGO,"Oakland, CA",USA,North America,https://www.linkedin.com/in/kennedydanny/ ,37.804351,-122.271164
125,Dany Qian,Global Vice President,Jinko Solar,Over 30,Female,For-Profit,Energy/Environmental,Shanghai?,China,Asia,https://www.linkedin.com/in/晶-钱-b77039166/?originalSubdomain=cn,31.230416,121.473701
126,David Baggs,CEO and Program Director,Global Green Tag,Over 30,Male,For-Profit,Energy/Environmental,Brisbane,Australia,Australia/Oceania,https://www.linkedin.com/in/ecolabel-green-product-certification-transparency-cradle-to-cradle-declare/?originalSubdomain=au,-27.470453,153.026034
127,David Johnson,Principal ,SERA Architects,Over 30,Male,For-Profit,"Architecture, Design, Engineering","Oakland, CA",USA,North America,https://www.linkedin.com/in/david-johnson-3a51495,37.804351,-122.271164
128,David Jones,Founder  ,One Young World,Over 30,Male,Non-Profit,NGO,"New York, NY",USA,North America,https://www.linkedin.com/in/davidjonesoyw/,40.712775,-74.005973
129,David Victor,Professor; Center for Global Transformation Endowed Chair in Innovation and Public Policy,University of California San Diego,Over 30,Male,Non-Profit,University,"La Jolla, CA",USA,North America,https://gps.ucsd.edu/faculty-directory/david-victor.html,32.832811,-117.271272
130,David Yeung ,Founder/CEO,Green Monday/Omni Food,Over 30,Male,For-Profit,Plant based food,Hong Kong,China,Asia,https://www.linkedin.com/in/greenmonday-david/,22.319304,114.169361
131,Dawn Lippert,Chief Executive Officer,Elemental Excelerator,Over 30,Female,Non-Profit,Energy/Environmental,"Honolulu, Hawaii",USA,North America,https://www.linkedin.com/in/dawnlippert/,21.306944,-157.858333
132,Deanna Bratter,Head of Sustainable Development,Danone,Over 30,Female,For-Profit,Energy/Environmental,"Lafayette, CO",USA,North America,https://www.linkedin.com/in/deannabratter/,39.993596,-105.089706
133,Devi Thant Sin,Founder,Myanmar Green Network,Over 30,Female,Non-profit,Energy/Environmental,Yangon,Myanmar,Asia,https://news.mongabay.com/2017/01/myanmars-green-princess-is-a-humble-activist-on-a-mission/,16.840939,96.173526
134,Diwigdi Valiente,Head of Sustainability,Panamanian Ministry of Tourism,Over 30,Male,Non-Profit,Government,Panama City,Panama,North America,https://www.linkedin.com/in/diwigdi-valiente-19a25591/?originalSubdomain=pa,30.158813,-85.660206
135,Dominique Nils Conseil,Director of Board; Founder and Former CEO,Ceres; Sustainable Results,Over 30,Female,For-Profit,Energy/Environmental,"Minneapolis, MN",USA,North America,https://www.linkedin.com/in/dominique-nils-conseil/,44.977753,-93.265011
136,Dominique Souris,Co-Founder and Executive Director,Youth Climate Lab,Under 30,Female,Non-Profit,NGO,Ontario,Canada,North America,https://www.linkedin.com/in/dominiquesouris/ ,51.253775,-85.323214
137,Don Henry,Enterprise Professor of Environmentalism at the Melbourne Sustainable Society Institute,University of Melbourne,Over 30,Male,Non-Profit,University,Melbourne,Australia,Australia/Oceania,https://msd.unimelb.edu.au/about/our-people/academic/don-henry,-37.813628,144.963058
138,Don McIntyre,Managing Director and CEO,Impact Metrics,Over 30,Male,For-Profit,Energy/Environmental,"Washington, D.C.",USA,North America,https://www.linkedin.com/in/donmcintyre/,38.907192,-77.036871
139,Donald Lindsay,Chief Executive Officer,Teck Resources,Over 30,Male,For-Profit,Energy/Environmental,Vancouver,Canada,North America,https://www.linkedin.com/in/don-lindsay-01136926/?originalSubdomain=ca,49.282729,-123.120738
140,Dorothee D'Herde,Head of Sustainable Business,Vodafone Group,Over 30,Female,For-Profit,Energy/Environmental,London,United Kingdom,Europe,https://www.linkedin.com/in/dorotheedherde/,51.507218,-0.127586
141,Durreen Shahnaz,Founder and CEO,Impact Investment Exchange,Over 30,Female,For-Profit,Energy/Environmental,Singapore,Singapore,Asia,https://www.linkedin.com/in/durreenshahnaz/,1.352083,103.819836
142,Ed Mazria,CEO,Architecture 2030,Over 30,Male,Non-Profit,"NGO/Architecture, Design, Engineering","Sante Fe, New Mexico",USA,North America,https://www.linkedin.com/in/edward-mazria-5b0117129/ ,35.686975,-105.937799
143,"Edda Fernández Luiselli
",Director General,Primary Sector and Renewable Natural Resources in the Undersecretary for Environmental Regulation and Promotion of the Ministry of Environment and Natural Resources (SEMARNAT),Over 30,Female,Non-profit,Government,Mexico City,Mexico,North America,http://www5.cec.org/content/edda-fern%C3%A1ndez,19.432608,-99.133208
144,Eduardo Gudynas,Director,Latin American Centre for Social Ecology,Over 30,Male,Non-Profit,NGO,Montivideo,Uruguay,South America,https://greattransition.org/contributor/eduardo-gudynas,-34.901113,-56.164531
145,Edward Palmieri,Director of Global Sustainability,Facebook,Over 30,Male,For-Profit,General,"Washington, D.C.",USA,North America,https://www.linkedin.com/in/ejpalmieri/,38.907192,-77.036871
146,Elaine Hsieh,Co-Founder,Third Derivative,Over 30,Female,Non-Profit,NGO,"Oakland, CA",USA,North America,https://www.linkedin.com/in/elaineishere/ ,37.804351,-122.271164
147,Elaine Strunk,Director of Global Sustainability,McDonalds,Over 30,Female,For-Profit,General,"Chicago, IL",USA,North America,https://www.linkedin.com/in/elainestrunk/,41.878114,-87.629798
148,Elizabeth Wanjiru Wathuti,Founder,Green Generation Initiative (GGI),Under 30,Female,Non-Profit,Circular Economy,Nairobi,Kenya,Africa,https://www.linkedin.com/in/elizabeth-wathuti-8415a299/,-1.292066,36.821946
149,Ellen Bell,Manager of Energy Transitions,Environmental Defense Fund,Over 30,Female,Non-Profit,Energy/Environmental,"Chicago, IL",USA,North America,https://www.linkedin.com/in/ellenkbell/,41.878114,-87.629798
150,Ellie Cohen,CEO,The Climate Center,Over 30,Female,Non-Profit,NGO,"San Francisco, CA",USA,North America,https://www.linkedin.com/in/elliecohen/,37.77493,-122.419416
151,Emani Kumar ,Chairman,Green growth Asia foundation,Over 30,Male,Non-Profit,Enviromental ,South Delhi ,India ,Asia,https://www.linkedin.com/in/emani-kumar-93972616/?originalSubdomain=in,28.481655,77.187286
152,Emilie Mazzacurati,Global Head of Climate Solutions,Moody's Corporation,Over 30,Female,For-Profit,General,"Berkeley, CA",USA,North America,https://www.linkedin.com/in/emazzacurati/,37.871523,-122.273042
153,Emilio Tenuta,Vice President Corporate Sustainability,Ecolab,Over 30,Male,For-Profit,General,"Saint Paul, MN",USA,North America,https://www.linkedin.com/in/emilio-tenuta-670846/,44.953703,-93.089958
154,Emily Chew,Executive Vice President and Chief Responsible Investment Officer,Calvert Research and Management,Over 30,Female,For-Profit,General,"New York, NY",USA,North America,https://www.linkedin.com/in/chewemily/,40.712775,-74.005973
155,Emily Shuckburgh,Director,Cambridge Zero at University of Cambridge,Over 30,Female,Non-Profit,University,Cambridge,United Kingdom,Europe,https://www.linkedin.com/in/emily-shuckburgh-01750a4/,52.204267,0.114908
156,Emma Stewart,Chief Sustainability Officer,Netflix,Over 30,Female,For-Profit,General,"San Francisco, CA",USA,North America,https://www.linkedin.com/in/emmastewart/,37.77493,-122.419416
157,Enrique Lores,Chief Executive Officer,HP Inc.,Over 30,Male,For-Profit,General,"Los Altos, CA",USA,North America,https://www.linkedin.com/in/enriquelores/,37.385218,-122.11413
158,Eric Garcetti,"Mayor of LA, Chairperson",C40 Cities,Over 30,Male,Non-Profit,NGO,"Los Angeles, CA",USA,North America,https://www.linkedin.com/in/ericgarcetti/ ,34.052234,-118.243685
159,Erica Mackie,Co-Founder and CEO,GRID Alternatives,Over 30,Female,Non-Profit,NGO,"Oakland, CA",USA,North America,https://www.linkedin.com/in/erica-mackie-9487539/ ,37.804351,-122.271164
160,Erich Pica,President,Friends of the Earth,Over 30,Male,Non-Profit,NGO,"Washington, D.C.",USA,North America,"https://foe.org/about-us/our-team/
https://www.linkedin.com/in/erich-pica-4b84011a/",38.907192,-77.036871
161,Erin Cooke,Sustainability Director,San Francisco International Airport,Over 30,Female,For-Profit,General,"San Francisco, CA",USA,North America,https://www.linkedin.com/in/erinmcooke/,37.77493,-122.419416
162,Erin Meezan,VP and Chief Sustainability Officer,Interface,Over 30,Female,For-Profit,General,"Atlanta, GA",USA,North America,https://www.linkedin.com/in/erinmeezan/,33.748995,-84.387982
163,Ernest Moniz,President and Chief Executive Officer,Energy Futures Initiative,Over 30,Male,Non-Profit,NGO,"Washington, D.C.",USA,North America,https://www.linkedin.com/in/ernestmoniz/ ,38.907192,-77.036871
164,Ernst Ulrich Von Weizsäcker,Former Co-President,Club of Rome,Over 30,Male,Non-Profit,NGO,Emmendingen,Germany,Europe,http://ernst.weizsaecker.de/en/,48.117092,7.853905
165,Esteban Martinez Lozada,Sustainability Director,Green Loop,Over 30,Male,For-Profit,"Architecture, Design, Engineering",Bogotá,Colombia,South America,https://www.usgbc.org/people/esteban-martinez-lozada/0010526349 https://www.linkedin.com/in/emartinezl/?locale=es_ES,4.710989,-74.072092
166,Esther Speck,Vice President of Global Sustainability and Social Impact,LuluLemon,Over 30,Female,For-Profit,General,Vancouver,Canada,North America,https://www.linkedin.com/in/esther-speck-1896b62/ ,49.282729,-123.120738
167,Eugene McKenna,Managing Director of Green Hydrogen,Johnson Matthey,Over 30,Male,For-Profit,Energy/Environmental,London,United Kingdom,Europe,https://www.linkedin.com/in/eugene-mckenna-3673a726/,51.507218,-0.127586
168,Eva Zabey,Executive Director,Business for Nature,Over 30,Female,Non-Profit,NGO,Geneva,Switzerland,Europe,https://www.linkedin.com/in/eva-zabey-2915403/,46.204391,6.143158
169,Isra Hirsi,Cofounder and Co-Executive Director,U.S. Youth Climate Strike,Under 30,Female,Non-profit,Activist,"Minneapolis, MN",USA,North America,https://www.instagram.com/israhirsi/?hl=en,44.977753,-93.265011
170,Evelyn  Acham,National Ugandan Coordinator,Rise Up Movement,Under 30,Female,Non-Profit,Activist,Kampala,Uganda,Africa,https://assembly.malala.org/stories/evelyn-acham-wants-ugandan-schools-to-add-climate-change-to-the-curriculum,0.347596,32.58252
171,Eyal  Weintraub,Co-founder,Jóvenes por el Clima Argentina (Youth for Climate Argentina),Under 30,Male,Non-Profit,Activist,Buenos Aires,Argentina,South America,https://www.greeneuropeanjournal.eu/article-author/eyal-weintraub/ https://globalclimatestrike.net/global-youth-climate-strikes-are-back-meet-the-strikers/,-34.603684,-58.381559
172,Farid Baddache,CEO and Co-Founder,Ksapa,Over 30,Male,For-Profit,Impact Investing,Paris,France,Europe,https://www.linkedin.com/in/farid-baddache/,48.856614,2.352222
173,Fatemah Alzelzela,Founder,EcoStar,Under 30,Female,For-Profit,Environmental Service - waste as a resource,Kuwait City,Kuwait,Asia,https://www.instagram.com/eco.star.kw/?hl=en,29.375859,47.977405
174,Fatih Birol,Executive Director,International Energy Agency,Over 30,Male,Non-Profit,Government,Paris,France,Europe,https://www.linkedin.com/in/fatih-birol-66862a195/,48.856614,2.352222
175,Fatou Jeng,Founder,Clean Earth Gambia,Under 30,Female,Non-Profit,Activist,Banjul,The Gambia,Africa,https://www.linkedin.com/in/fatou-jeng-605b8410b/detail/contact-info/,13.454375,-16.575319
176,Filagot Tesfaye,President and Founder,Ethiopian Women in Energy network ,Over 30,Female,Non-Profit,,Addis Ababa,Ethiopia,Africa,https://w4c.org/profile/addis-ababa-filagot-tesfaye http://ewien.org/about/team/filagot-tesfaye/,8.980603,38.75776
177,Flavia Bellaguarda,Co-founder & Ambassador,Youth Climate Leaders,Under 30,Female,Non-Profit,Energy/Environmental,São Paulo,Brazil,South America,https://www.linkedin.com/in/fl%C3%A1via-bellaguarda/,-23.555771,-46.639557
178,Francesco  La Camera,Director-General of the International Renewable Energy Agency (IRENA).,IRENA,Over 30,Male,Non-Profit,Energy,Abu Dhabi ,UAE,Asia,Twitter: https://twitter.com/flacamera,24.453884,54.377344
179,Francia Marquez,2018 Goldman Prize Recipient,Goldman Environmental Prize,Over 30,Male,Non-Profit,Activist,Cali,Colombia,South America,https://www.oneearth.org/environmental-hero-francia-marquez/,3.451647,-76.531985
180,Francisco Vera,Founder,Guardianes Por La Vida,Under 30,Male,Non-Profit,Activist,Villeta,Colombia,South America,https://remezcla.com/culture/meet-francisco-vera-11-year-old-colombia-environmental-activist-greta-thunberg/ https://www.eltiempo.com/cultura/francisco-vera-el-nino-ambientalista-en-entrevista-con-revista-bocas-583694,5.011706,-74.470362
181,Francois Austin,Partner and Global Head of Energy Practice,Oliver Wyman,Over 30,Male,For-Profit,Energy/Environmental,London,United Kingdom,Europe,https://www.linkedin.com/in/francoisaustin/,51.507218,-0.127586
182,Francois-Henri Pinault,Chief Executive Officer,Kering SA,Over 30,Male,For-Profit,General,London,United Kingdom,Europe,https://www.kering.com/en/group/our-governance/  https://www.linkedin.com/in/fran%C3%A7ois-pinault-406b9673/?originalSubdomain=uk,51.507218,-0.127586
183,Frank Rijsberman,Director General,Global Green Growth Institute,Over 30,Male,Non-Profit,NGO,Seoul,South Korea,Asia,https://www.linkedin.com/in/frank-rijsberman-17841014/,37.566535,126.977969
184,Frank Rukavina,President and Senior Advisor,Sustainable Innovations Operative,Over 30,Male,For-Profit,Energy/Environmental,"Denver, CO",USA,North America,https://www.linkedin.com/in/frank-rukavina/,39.739236,-104.990251
185,Fred Krupp,President,Environmental Defense Fund,Over 30,Male,Non-Profit,NGO,"New York, NY",USA,North America,"https://www.edf.org/people/fred-krupp
https://www.linkedin.com/in/fred-krupp-66310510a/",40.712775,-74.005973
186,Gayle Schueller,Vice President and Chief Sustainability Officer,3M,Over 30,Female,For-Profit,General,"Minneapolis, MN",USA,North America,https://www.linkedin.com/in/gayleschueller/,44.977753,-93.265011
187,George Bandy Jr.,Head of Worldwide Circular Economy,Amazon,Over 30,Male,For-Profit,General,"Atlanta, GA",USA,North America,https://www.linkedin.com/in/george-bandy-jr-578b164/,33.748995,-84.387982
188,Alexandra Criscuolo,Environmental Sustainability Manager,New York Road Runners,Under 30,Female,Non-Profit,NGO,"New York, NY",USA,North America,https://www.linkedin.com/in/alexandracriscuolo/,40.712775,-74.005973
189,Gil Friend,"CEO, Keynote Speaker",Natural Logic,Over 30,Male,For-Profit,Energy/Environmental,"Berkeley, CA",USA,North America,https://www.linkedin.com/in/gfriend/,37.871523,-122.273042
190,Gina McCarthy,National Climate Advisor; Former President,White House Office of Domestic Climate Policy; NRDC,Over 30,Female,Non-Profit,Government,"Boston, MA",USA,North America,https://www.nrdc.org/experts/gina-mccarthy,42.360082,-71.05888
191,Gloria  Bulus,Founder/Executive Director,Bridge That Gap Initiative,Over 30,Female,Non-Profit,Energy/Environmental,Kaduna ,Nigeria,Africa,https://www.ted.com/profiles/7696161,10.510464,7.416505
192,Xiye Bastida,Lead Organizer,Fridays for Future,Under 30,Female,Non-profit,Activist,"New York, NY",USA,North America,https://www.linkedin.com/in/xiye-bastida-377394199/,40.712775,-74.005973
193,Golo J. Pilz,Director,India One,Over 30,Male,Non-Profit,Government,Mount Abu,India,Asia,http://www.cop-23.org/speakers/golo-j.-pilz ,24.592591,72.715627
194,Gonzalo Muñoz,High Level Climate Action Champion,COP25,Over 30,Male,Non-Profit,NGO,Santiago,Chile,South America,https://www.linkedin.com/in/gonzalomunozabogabir/ ,-33.44889,-70.669266
195,Graciela Chichilnisky,CEO and Co-founder,Global Thermostat,Over 30,Female,For-Profit,,"New York, NY",USA,North America,https://globalthermostat.com/graciela-chichilnisky/,40.712775,-74.005973
196,Gregor Robertson,"Former Mayor of Vancouver, Global Ambassador",Global Covenant of Mayors for Climate and Energy,Over 30,Male,Non-Profit,NGO,Vancouver,Canada,North America,https://www.linkedin.com/in/gregor-robertson/?originalSubdomain=ca ,49.282729,-123.120738
197,Greta Thunberg,Social Media Climate Activist,,Under 30,Female,Non-profit,Activist,Stockholm,Sweden,Europe,https://www.instagram.com/gretathunberg/,59.329324,18.068581
198,Guy-Noël Sauvion,Fellow Scientist and Ecoefficieny Manager,Solvay,Over 30,Male,For-Profit,Energy/Environmental,Région de Lyon,France,Europe,https://www.linkedin.com/in/guy-no%C3%ABl-sauvion-948530b9/,45.740547,4.819742
199,H.H. Sheikh Mohammed bin Rashid Al Maktoum,Vice President and Prime Minister,UAE,Over 30,Male,Non-Profit,Government,Dubai,UAE,Asia,https://www.linkedin.com/in/mohammedbinrashid/?originalSubdomain=ae,25.204849,55.270783
200,Hamid Moghadam,Chairman & Chief Executive Officer,Prologis,Over 30,Male,For-Profit,General,"San Francisco, CA",USA,North America,https://www.linkedin.com/in/hamid-moghadam-936026178/,37.77493,-122.419416
201,Han de Groot,Executive Director; Former CEO,WASTE NL; Rainforest Alliance,Over 30,Male,Non-Profit,NGO,South Holland,Netherlands,Europe,https://www.linkedin.com/in/handegroot1/,41.600868,-87.606989
202,Giana Amador,Founder and Policy Director,Carbon 180,Under 30,Female,Non-Profit,NGO,"Oakland, CA",USA,North America,https://www.linkedin.com/in/gianaamador/,37.804351,-122.271164
203,Hannah Jones,Former Chief Sustainability Officer,Nike,Over 30,Female,For-Profit,General,"Portland, OR",USA,North America,https://www.linkedin.com/in/joneshannah/,45.515232,-122.678385
204,Heather Henriksen,Chief Sustainability Officer,Harvard University,Over 30,Female,Non-Profit,University,"Boston, MA",USA,North America,https://www.linkedin.com/in/heatherhenriksen/,42.360082,-71.05888
205,Helen Clarkson,CEO,The Climate Group,Over 30,Female,Non-Profit,NGO,London,United Kingdom,Europe,https://www.linkedin.com/in/helenclarkson/,51.507218,-0.127586
206,Helena Molin Valdes,Head of Secretariat,Climate and Clean Air Coalition,Over 30,Female,Non-Profit,NGO,Paris,France,Europe,https://www.linkedin.com/in/helena-molin-valdes-7a222748/,48.856614,2.352222
207,Henning Ohlsson,Managing Director,Epson Deutschland Gmbh,Over 30,Male,For-Profit,General,Cologne Bonn,Germany,Europe,https://www.linkedin.com/in/henning-ohlsson-43b01348/,50.874502,7.191484
208,Henrik Poulsen,Chief Executive Officer,Ørsted,Over 30,Male,For-Profit,General,Copenhagen,Denmark,Europe,https://www.linkedin.com/in/henrik-poulsen-155b22189/,55.676097,12.568337
209,Herbert Giradet,Executive Committee Member,Club of Rome,Over 30,Male,Non-Profit,NGO,Newport,United Kingdom,Europe,https://www.linkedin.com/in/herbert-girardet-a2853811/?originalSubdomain=uk,41.490102,-71.312828
210,Herry  Cho,"Managing Director, Head of Sustainability and Sustainable Finance",SGX,Over 30,Female,For-Profit,General,Singapore,Singapore,Asia,https://www.linkedin.com/in/herrycho/,1.352083,103.819836
211,Hilda Liswani,Founder and CEO,WeBloom,Under 30,Female,For-Profit,Energy/Environmental,Zurich,Switzerland,Europe,https://www.linkedin.com/in/hilda-n-liswani-7952218a/,47.376887,8.541694
212,Hindou Oumarou Ibrahim,President,Association for Indigenous Women and Peoples of Chad (AFPAT),Over 30,Female,Non-Profit,NGO,N'Djamena,Chad,Africa,https://www.linkedin.com/in/hindou-oumarou-ibrahim-2ba22410/?originalSubdomain=td,12.134846,15.055742
213,Hirohide Furutani,Director,Renewable Energy Research Center (Japan),Over 30,Male,Non-profit,Energy/Environmental,Koriyama,Japan,Asia,https://orcid.org/0000-0002-5079-4764,37.400478,140.359682
214,Hiroshi Komiyama,Chairman,Platinum Society Network,Over 30,Male,Non-Profit,NGO,Tokyo,Japan,Asia,https://www.linkedin.com/pulse/capitalism-coming-age-story-daisuke-tsuchiya/,35.676192,139.650311
215,Hoesung Lee,Chair of IPCC,Intergovernmental Panel on Climate Change,Over 30,Male,Non-Profit,NGO,Seoul,South Korea,Asia,https://www.linkedin.com/in/hoesung-lee-68792892/?originalSubdomain=kr,37.566535,126.977969
216,Isha Clarke,Founding Member,Youth vs. Apocalypse,Under 30,Female,Non-profit,Activist,"Oakland, CA",USA,North America,https://www.instagram.com/curlyqisha/?hl=en,37.804351,-122.271164
217,Howard Jones,Group Head of Sustainability and Community,Bangarra Group,Over 30,Male,For-Profit,General,London,United Kingdom,Europe,https://www.linkedin.com/in/howard-jones-6a253b4/,51.507218,-0.127586
218,Hunter Lovins,President,Natural Capitalism Solutions,Over 30,Female,Non-Profit,NGO,"Denver, CO",USA,North America,https://www.linkedin.com/in/hunterlovins/ ,39.739236,-104.990251
219,Hynd Bouhia,President and CEO,Strategica,Over 30,Female,For-Profit,Energy/Environmental,Rabat,Morocco,Africa,https://www.linkedin.com/in/hynd-bouhia-phd-0289a3a3/,33.97159,-6.849813
220,Illac Diaz,Founder,Liter of Light,Over 30,Male,Non-Profit,NGO,Manila,Philippines,Asia,https://www.linkedin.com/in/ildiaz/?originalSubdomain=ph,14.599512,120.98422
221,Inesh Singh,Chief Sustainability Officer,Sula Vineyards,Under 30,Male,For-Profit,General,Haryana,India,Asia,https://www.linkedin.com/in/ineshsingh/,29.058776,76.085601
222,Inger Anderson,Executive Director,United Nations Environment Programme,Over 30,Female,Non-Profit,Government,Nairobi,Kenya,Africa,https://www.unep.org/people/inger-andersen,-1.292066,36.821946
223,Ioannis Ioannou,Associate Professor of Strategy and Entrepreneurship,London Business School,Over 30,Female,Non-Profit,University,London,United Kingdom,Europe,https://www.linkedin.com/in/iioannoulbs/,51.507218,-0.127586
224,Ion Yadigaroglu,Co-Founder and Partner,Capricorn Investment Group,Over 30,Male,For-Profit,Energy/Environmental,"New York, NY",USA,North America,https://www.linkedin.com/in/ion-yadigaroglu-6042b0/,40.712775,-74.005973
225,Isabella Kocher,Former CEO,Engie,Over 30,Female,For-Profit,Energy/Environmental,Paris,France,Europe,https://www.linkedin.com/in/isabellekocher/,48.856614,2.352222
226,Isabella Lovin,"FORMER... Need another title Minister for Climate and Environment, Deputy Prime Minister",Government of Sweden,Over 30,Female,Non-Profit,Government,Stockholm,Sweden,Europe,https://www.government.se/government-of-sweden/ministry-of-the-environment/isabella-lovin/,59.329324,18.068581
227,Chris Castro,Director of Sustainability and Resilience,City of Orlando,Under 30,Male,Non-Profit,Government,"Orlando, FL",USA,North America,https://www.linkedin.com/in/chriscastroideas/ ,28.538383,-81.378927
228,Charlotte Bande,Global Head of Climate Strategy,Quantis International,Under 30,Female,For-Profit,Energy/Environmental,"San Diego, CA",USA,North America,https://www.linkedin.com/in/charlotte-bande/,32.715738,-117.161084
229,Izabella Teixeira,Co-Chair; Former Minister of the Environment,UNEP International Resource Panel; Brazil,Over 30,Female,Non-Profit,Government,Rio de Janeiro,Brazil,South America,https://www.linkedin.com/in/izabella-monica-teixeira-she-her-66405812a/?originalSubdomain=br,-22.906847,-43.172896
230,Jack Ehnes,Chief Executive Officer,CalSTRS ,Over 30,Male,For-Profit,General,"West Sacramento, CA",USA,North America,https://www.linkedin.com/in/jack-ehnes/,38.580461,-121.530234
231,Jad Daley,President and CEO,American Forests,Over 30,Male,Non-Profit,NGO,"Washington, D.C.",USA,North America,https://www.linkedin.com/in/jad-daley-08882010/,38.907192,-77.036871
232,James Cameron,Senior Advisor,"Pollination, Tulchan & SYSTEMIQ",Over 30,Male,For-Profit,Energy/Environmental,London,United Kingdom,Europe,https://www.linkedin.com/in/jamescameron4/,51.507218,-0.127586
233,James Connelly,Chief Executive Officer,My Green Lab,Over 30,Male,Non-Profit,NGO,"Seattle, WA",USA,North America,https://www.linkedin.com/in/james-connelly-55909024/,47.60621,-122.332071
234,James Ellsmoor,Founder and CEO; Director,Island Innovation; Solar Head of State,Under 30,Male,For-Profit,Energy/Environmental,Lisbon,Portugal,Europe,https://www.linkedin.com/in/jellsmoor/,38.722252,-9.139337
235,James Goudreau,Head of Climate,Novartis,Over 30,Male,For-Profit,Energy/Environmental,"Boston, MA",USA,North America,https://www.linkedin.com/in/jamesgoudreau/,42.360082,-71.05888
236,James Hansen,"Adjunct Professor and Director of Climate Science, Awareness, and Solutions",Columbia University’s Earth Institute,Over 30,Male,Non-profit,Activist,"Palisades, NY",USA,North America,https://www.earth.columbia.edu/users/profile/james-e-hansen,41.011308,-73.913293
237,Jane Burston,"Executive Director, Former Head of Climate and Environment","Clean Air Fund, UK NPL",Over 30,Female,Non-Profit,NGO,London,United Kingdom,Europe,https://www.linkedin.com/in/janeburston/,51.507218,-0.127586
238,Jane Lubchenco,Professor,Environmental (Marine) Sciences at Oregon State University,Over 30,Female,Non-Profit,Energy/Environmental,"Corvallis, OR",USA,North America,https://www.linkedin.com/in/jane-lubchenco-7794a2207/,44.564566,-123.262044
239,Jane McDonald,Executive Vice President,International Institute for Sustainable Development,Over 30,Female,Non-Profit,NGO,Winnipeg,Canada,North America,https://www.linkedin.com/in/jane-mcdonald-75695a66/ ,49.895136,-97.138374
240,Janet Ranganathan,Vice President Science and Research,World Resources Institute (on board of Ceres),Over 30,Female,Non-Profit,NGO,"Bethesda, MD",USA,North America,https://www.linkedin.com/in/janet-ranganathan-512355a/,38.984652,-77.094709
241,Janez Potočnik,Co-Chair,UNEP International Resource Panel,Over 30,Male,Non-Profit,Government,Brussels,Belgium,Europe,https://www.linkedin.com/in/janez-potocnik-872470a7/?originalSubdomain=be,50.85034,4.35171
242,Janice Lao,ESG Director,Helen of Troy,Over 30,Female,For-Profit,General,"El Paso, TX",USA,North America,https://www.linkedin.com/in/janiceillao/,31.761878,-106.485022
243,Janine Benyus,Founder,Biomimicry Institute,Over 30,Female,Non-Profit,NGO,"Stevensville, MT",USA,North America,https://www.linkedin.com/in/janine-benyus-a5626/ ,46.509922,-114.093159
244,Janis Searles Jones,Chief Executive Officer,Ocean Conservancy,Over 30,Female,Non-Profit,NGO,"Portland, OR",USA,North America,https://www.linkedin.com/in/janissearlesjones/ ,45.515232,-122.678385
245,Jason Walters,Director of Sustainability,Pearson Plc,Over 30,Male,For-Profit,General,"New York, NY",USA,North America,https://www.uschamberfoundation.org/bio/jason-walters,40.712775,-74.005973
246,Jason Youner,Founder and CEO,Companies vs Climate Change Sustainability Consulting,Over 30,Male,For-Profit,Energy/Environmental,"New York, NY",USA,North America,https://www.linkedin.com/in/jasonyouner/,40.712775,-74.005973
247,Jed Emerson,"Managing Director, Global Lead Impact Investing",Tiedemann Advisors,Over 30,Male,For-Profit,Energy/Environmental,"New York, NY",USA,North America,https://www.linkedin.com/in/jedemerson/,40.712775,-74.005973
248,Jeff Lalich,EHS for Global Service Center Operations,Rivian,Over 30,Male,For-Profit,Energy/Environmental,"San Francisco, CA",USA,North America,https://www.linkedin.com/in/jefflalich/,37.77493,-122.419416
249,Jeffrey Sachs,Director,Columbia Center on Sustainable Development,Over 30,Male,Non-Profit,University,"New York, NY",USA,North America,https://www.linkedin.com/in/jeffrey-sachs-7494689a/,40.712775,-74.005973
250,Jennifer Holmgren,CEO,LanzaTech,Over 30,Female,For-Profit,Energy/Environmental,"Skokie, IL",USA,North America,https://www.linkedin.com/in/jennifer-holmgren-95b6201/,42.032402,-87.741625
251,Jennifer Morgan,Executive Director,Greenpeace International,Over 30,Female,Non-Profit,NGO,Amsterdam,Netherlands,Europe,https://www.linkedin.com/in/jennifer-morgan-52940b188/,52.367573,4.904139
252,Jennifer Morris,CEO; Former President,The Nature Conservancy; Conservation International,Over 30,Female,Non-Profit,NGO,"Washington, D.C.",USA,North America,https://www.linkedin.com/in/jennifer-morris-934a426/ ,38.907192,-77.036871
253,Jennifer Silberman,VP of ESG,YETI,Over 30,Female,For-Profit,General,"Washington, D.C.",USA,North America,https://www.linkedin.com/in/jennifer-silberman-3b40492/,38.907192,-77.036871
254,Jessica Aldridge,Director of Sustainability and Zero Watse Programs,Athens Services,Over 30,Female,For-Profit,Energy/Environmental,"Los Angeles, CA",USA,North America,https://www.linkedin.com/in/jessicaaldridgegreenbean/,34.052234,-118.243685
255,Jill Dumain,CEO,bluesign technologies ag,Over 30,Female,For-Profit,Energy/Environmental,St. Gallen,Switzerland,Europe,https://www.linkedin.com/in/jilldumain/?originalSubdomain=ch,47.424482,9.376717
256,Jim Skea,Professor of Sustainable Energy,Imperial College London,Over 30,Male,Non-Profit,University,London,United Kingdom,Europe,https://www.imperial.ac.uk/people/j.skea,51.507218,-0.127586
257,Joan MacNaughton,Executive Chair of the World Energy Trilemma,World Energy Council,Over 30,Female,Non-Profit,NGO,London,United Kingdom,Europe,https://www.linkedin.com/in/joanmacnaughton/,51.507218,-0.127586
258,Joao Paolo Brotto Goncalves Ferreira,Chief Executive Officer,Natura & Co,Over 30,Male,For-Profit,General,São Paulo,Brazil,South America,https://www.bloomberg.com/profile/person/19032200 https://www.forbes.com/companies/natura-co/?sh=41fb5faa2ecf,-23.555771,-46.639557
259,Joe Rozza,Director of Sustainability and Resilience,Jacobs,Over 30,Male,For-Profit,"Architecture, Design, Engineering","Atlanta, GA",USA,North America,https://www.linkedin.com/in/joe-rozza-a8143b12/,33.748995,-84.387982
260,John Elliott,Chief Sustainability Officer,Berkeley National Laboratory,Over 30,Male,Non-Profit,University,"Berkeley, CA",USA,North America,https://www.linkedin.com/in/john-elliott-7317a662/,37.871523,-122.273042
261,John Kerry,Special Presidential Envoy for Climate,U.S. Department of State,Over 30,Male,Non-Profit,Government,"Boston, MA",USA,North America,https://www.state.gov/biographies/john-kerry/,42.360082,-71.05888
262,John Kliem,Director of Federal Energy Strategy; Former Executive Director of Resilient Energy Program Office,Johnson Controls; US Navy,Over 30,Male,For-Profit,General; Government,"Washington, D.C.",USA,North America,https://www.linkedin.com/in/johnkliem/,38.907192,-77.036871
263,John Robinson,Joan L. Tweedy Chair in Conservation Strategy,Wildlife Conservation Society,Over 30,Male,Non-Profit,NGO,"Bronx, NY",USA,North America,https://www.linkedin.com/in/john-g-robinson-67593312/,40.844782,-73.864827
264,John Warner,Distinguished Research Fellow,Zymergen,Over 30,Male,For-Profit,Energy/Environmental,"Wilmington, MA",USA,North America,https://www.linkedin.com/in/john-warner-5681177/,42.548171,-71.172447
265,Jon Dee,Founder and Managing Director,DoSomething,Over 30,Male,Non-Profit,NGO,Sydney,Australia,Australia/Oceania,https://www.linkedin.com/in/jondee/,-33.86882,151.209296
266,Jonas C. Peters,"Director of Resnick Sustainability Institute, Bren Professor of Chemistry",Caltech,Over 30,Male,Non-Profit,University,"Pasadena, CA",USA,North America,https://www.cce.caltech.edu/people/jonas-c-peters,34.147785,-118.144516
267,Jonas de Schaepmeester,Program Manager Decarbonization,Umicore,Under 30,Male,For-Profit,Energy/Environmental,Ghent,Belgium,Europe,https://www.linkedin.com/in/jonas-de-schaepmeester-9b531377/?originalSubdomain=be,51.054342,3.717424
268,Jonathan Foley,Exec. Director,Project Drawdown,Over 30,Male,Non-Profit,NGO,"San Francisco, CA",USA,North America,https://www.linkedin.com/in/jonathan-foley-182808b9/,37.77493,-122.419416
269,José Luis Blasco,Global Sustainability Director,Acciona,Over 30,Male,For-Profit,Energy/Environmental,Madrid,Spain,Europe,https://www.linkedin.com/in/joseluisblasco/,40.416775,-3.70379
270,Joseph DeSimone,Exec. Chairman and Co-founder,Carbon3d,Over 30,Male,For-Profit,Energy/Environmental,"San Francisco, CA",USA,North America,https://www.linkedin.com/in/josephdesimone1/,37.77493,-122.419416
271,Jouni Keronen,Executive Director,Climate Leadership Council,Over 30,Male,Non-Profit,NGO,Porvoo,Finland,Europe,https://www.linkedin.com/in/jouni-keronen-98385514a/,60.393192,25.665274
272,Juan Jose Freijo,"Vice President, Global Head of Sustainability and EMEA Government Affairs",Brambles,Over 30,Male,For-Profit,General,Madrid,Spain,Europe,https://www.linkedin.com/in/j-j-freijo-42935410/,40.416775,-3.70379
273,Jules Kortenhorst,Chief Executive Officer,Rocky Mountain Institute,Over 30,Male,Non-Profit,NGO,"Boulder, CO",USA,North America,https://www.linkedin.com/in/juleskortenhorst/ ,40.014986,-105.270546
274,Juliana Gutiérrez,"Director, Co-Founder",Low Carbon City,Over 30,Female,Non-Profit,NGO,Medellin,Colombia,South America,https://www.linkedin.com/in/julianagutierrezr/?originalSubdomain=co https://fellows.echoinggreen.org/fellow/juliana-gutierrez/,6.247638,-75.565815
275,Juliet Davenport,Founder and CEO,Good Energy,Over 30,Female,For-Profit,Energy/Environmental,Swindon,United Kingdom,Europe,https://www.linkedin.com/in/juliet-davenport-643564/,51.555774,-1.779718
276,Julio Friedmann,"Senior Research Scholar, Lead of CaMRI Initiative",Columbia University,Over 30,Male,Non-Profit,University,"New York, NY",USA,North America,https://www.linkedin.com/in/julio-friedmann-86a83a44/,40.712775,-74.005973
277,Junko Edahiro,President,"Institute for Studies in Happiness, Economy and Society (ISHES)",Over 30,Female,Non-Profit,NGO,Tokyo,Japan,Asia,https://www.linkedin.com/in/junko-edahiro-98a57b162/?originalSubdomain=jp,35.676192,139.650311
278,Justin Adams,Executive Director,Tropical Forest Alliance,Over 30,Male,Non-Profit,NGO,Oxford,United Kingdom,Europe,https://www.linkedin.com/in/justin-adams-a074722/,51.754816,-1.254367
279,Jyoti Parikh,Executive Director,Integrated Research and Action for Development,Over 30,Female,Non-Profit,NGO,South Delhi,India,Asia,https://www.linkedin.com/in/jyoti-parikh-25b1707/,28.481655,77.187286
280,Kadri Simson,Commissioner for Energy,European Union,Over 30,Female,Non-Profit,Government,Estonia,Estonia,Europe,https://twitter.com/KadriSimson?ref_src=twsrc%5Egoogle%7Ctwcamp%5Eserp%7Ctwgr%5Eauthor,58.595272,25.013607
281,Kaisa Hietala,Partner and Co-Owner,GAIA,Over 30,Female,For-Profit,Consulting,Helsinki,Finland,Europe,https://fi.linkedin.com/in/kaisa-hietala-9a936350,60.169856,24.938379
282,Kaisa Jungman,Director of Sustainable Business Development,Metso Outotec,Over 30,Female,For-Profit,General,Helsinki ,Finland,Europe,https://www.linkedin.com/in/kaisa-jungman-34a13b5/?originalSubdomain=fi,60.169856,24.938379
283,Kara Hurst,Head of Worldwide Sustainability,Amazon,Over 30,Female,For-Profit,General,"Seattle, WA",USA,North America,https://www.linkedin.com/in/karahartnetthurst/,47.60621,-122.332071
284,Karen Wayland,CEO,kW Energy Strategies,Over 30,Female,For-Profit,Energy/Environmental,"Washington, D.C.",USA,North America,https://www.linkedin.com/in/karen-wayland-87228310/,38.907192,-77.036871
285,Karim El Aynaoui,President,Policy Center for the New South,Over 30,Male,Non-Profit,NGO,Rabat,Morocco,Africa,https://www.linkedin.com/company/policycenterns/people/,33.97159,-6.849813
286,Kate Brandt,Chief Sustainability Officer,Google,Over 30,Female,For-Profit,General,"Mountain View, CA",USA,North America,https://www.linkedin.com/in/katebrandt/,37.386052,-122.083851
287,Kate Gordon,Director,California Governor's Office of Planning and Research,Over 30,Female,Non-Profit,Government,"Berkeley, CA",USA,North America,https://www.linkedin.com/in/kategordonconsulting/,37.871523,-122.273042
288,Kate Hampton,CEO,Children's Investment Fund Foundation (CIFF),Over 30,Female,Non-Profit,NGO,London,United Kingdom,Europe,https://www.linkedin.com/in/kate-hampton-932b3035/,51.507218,-0.127586
289,Kate Heiny,Sustainability Director,Zalando SE,Over 30,Female,For-Profit,General/Clothing,Brussels,Belgium,Europe,https://www.linkedin.com/in/kateheiny/,50.85034,4.35171
290,Kate Marvel,Associate Research Scientist,NASA Goddard Institute for Space Studies at Columbia University,Over 30,Female,Non-Profit,Government,"New York, NY",USA,North America,http://www.marvelclimate.com/,40.712775,-74.005973
291,Kate Raworth,Author; Senior Research Associate; Professor of Practice,Doughnut Economics; Oxford University’s Environmental Change Institute; Amsterdam University of Applied Sciences,Over 30,Female,Non-Profit,University,Oxford,United Kingdom,Europe,https://www.kateraworth.com/about/,51.754816,-1.254367
292,Kate Williams,CEO,1% for the Planet,Over 30,Female,Non-Profit,NGO,"Burlington, VT",USA,North America,https://www.linkedin.com/in/katewilliams87/,44.475882,-73.212072
293,Katharine Hayhoe,Professor of Endowed Political Science and Director of Climate Center,Texas Tech University,Over 30,Female,Non-Profit,University,"Lubbock, TX",USA,North America,https://www.linkedin.com/in/katharine-hayhoe/,33.577863,-101.855166
294,Katharine Wilkinson,Co-Founder,The All We Can Save Project,Over 30,Female,Non-Profit,NGO,"Atlanta, GA",USA,North America,https://www.linkedin.com/in/katharine-k-wilkinson/,33.748995,-84.387982
295,Kathleen McLaughlin,Chief Sustainability Officer,Walmart,Over 30,Female,For-Profit,General,"Bentonville, AR",USA,North America,https://www.linkedin.com/in/kathleenforgood/,36.372854,-94.208817
296,Katrin Scholz-Barth,CEO and Founder Katrin Scholz-Barth consulting,Katrin Scholz-Barth consulting,Over 30,Female,For-Profit,Consulting,Doha,Qatar,Asia,https://www.linkedin.com/in/katrinscholzbarth/,25.285447,51.53104
297,Katrina Spade,Founder and CEO,Recompose,Over 30,Female,For-Profit,Energy/Environmental,"Seattle, WA",USA,North America,https://www.linkedin.com/in/katrina-spade-37047439/,47.60621,-122.332071
298,Kaushik Sridhar,Group Manager of Social Responsibility and ESG Reporting,Evolution Mining,Over 30,Male,For-Profit,General,Sydney,Australia,Australia/Oceania,https://www.linkedin.com/in/kaushiksridhar83/,-33.86882,151.209296
299,Kehua Hu,Director of Sustainability Stewardship,China National Textile and Apparel Council,Over 30,Male,Non-Profit,NGO,Beijing,China,Asia,https://www.linkedin.com/in/kehua-hu-6936a43a/?originalSubdomain=cn,39.9042,116.407396
300,Ken Berlin,President and CEO,The Climate Reality Project,Over 30,Male,Non-Profit,NGO,"Washington, D.C.",USA,North America,https://www.linkedin.com/in/kberlin/,38.907192,-77.036871
301,Kenneth Kimmell,Visiting Scholar/Former President,Northeastern University School of Public Policy and Urban Affairs/Union of Concerned Scientists,Over 30,Male,Non-Profit,University,"Boston, MA",USA,North America,"https://www.ucsusa.org/about/staff/staff/kenneth-kimmell.html
https://www.linkedin.com/in/ken-kimmell-b2046a12/ https://cssh.northeastern.edu/policyschool/new-sppua-visiting-fellow-ken-kimmell/",42.360082,-71.05888
302,Kevin Kampschroer,"Director, Office of Federal High-Performance Buildings",US General Services Administration,Over 30,Male,Non-Profit,"Government/Architecture, Design, Engineering","Washington, D.C.",USA,North America,https://www.linkedin.com/in/kevinkampschroer/ ,38.907192,-77.036871
303,Kevin Rabinovitch,"Global VP, Sustainability and Chief Climate Officer","Mars, Inc.",Over 30,Male,For-Profit,General,"Mclean, VA",USA,North America,https://www.linkedin.com/in/kevin-rabinovitch-4280735/,38.933868,-77.17726
304,Kim Thomassin,Executive Vice-President and Head of Investments in Québec and Stewardship Investing,CDPQ,Over 30,Female,For-Profit,Energy/Environmental,Montreal,Canada,North America,https://www.linkedin.com/in/kim-thomassin-794682/ ,45.501689,-73.567256
305,Klaus Lackner,Director of Center for Negative Carbon Emissions and professor at the School of Sustainable Engineering and the Built Environment of the Ira A. Fulton Schools of Engineering,Arizona State University,Over 30,Male,Non-Profit,University,"Tempe, AZ",USA,North America,https://cnce.engineering.asu.edu/klaus-lackner/,33.42551,-111.940005
306,Klaus Schwab,Founder and Executive Chairman,World Economic Forum,Over 30,Male,Non-Profit,NGO,Geneva,Switzerland,Europe,https://www.linkedin.com/in/klaus-schwab-80b285200/,46.204391,6.143158
307,Kotchakorn Voraakhom,Chairwoman of Climate Change Working Group,"International Federation of Landscape Architects, World",Over 30,Female,Non-Profit,NGO,Bangkok City,Thailand,Asia,https://www.linkedin.com/in/kotch-voraakhom/?originalSubdomain=th,32.799167,-96.779444
308,Kristal Ambrose,Founder,Bahamas Plastic Movement,Under 30,Female,Non-Profit,Energy/Environmental,Eleuthera,The Bahamas,North America,https://www.goldmanprize.org/recipient/kristal-ambrose/,24.931446,-76.189966
309,Kristina Kloberdanz,Chief Sustainability Officer,Mastercard,Over 30,Female,For-Profit,General,"New York, NY",USA,North America,https://www.linkedin.com/in/kristina-kloberdanz-1446491/,40.712775,-74.005973
310,Kudakwashe (Kuda) Ndhlukula,Executive Director at SADC Centre for Renewable Energy & Energy Efficiency (SACREEE),SACREEE,Over 30,Male,Non-profit,Energy/Sustainability,Harare,Zimbabwe,Africa,https://www.linkedin.com/in/kudakwashe-kuda-ndhlukula-72420317/?miniProfileUrn=urn%3Ali%3Afs_miniProfile%3AACoAAANpYEwBu-pEk5gVbZM9OOgYA2lhW00TG5M,-17.821629,31.049226
311,Kushagra  Srivastava,CEO,Chakr Innovation,Under 30,Male,For-Profit,,Delhi,India,Asia,https://www.linkedin.com/in/kushagra-srivastava-b68b2787/,28.704059,77.10249
312,Larry Selzer,President and Chief Executive Officer,The Conservation Fund,Over 30,Male,Non-Profit,NGO,"Arlington, VA",USA,North America,"https://www.conservationfund.org/our-experts/larry-selzer
https://www.linkedin.com/in/larry-selzer-b243239/ ",38.881621,-77.090981
313,Laurence Tubiana,President and CEO,European Climate Foundation,Over 30,Female,Non-Profit,NGO,Paris,France,Europe,https://www.linkedin.com/in/laurence-tubiana-4381314/,48.856614,2.352222
314,Lee Ballin,Head of Business Development and Sustainability,Bloomberg NEF,Over 30,Male,For-Profit,General,"New York, NY",USA,North America,https://www.linkedin.com/in/lee-ballin-85aa2033/,40.712775,-74.005973
315,Leslie Alden,Co-Founder and Executive Director,DRAWDOWN Bay Area,Over 30,Female,Non-Profit,NGO,"San Francisco, CA",USA,North America,https://www.linkedin.com/in/leslie-alden-a134aa11/,37.77493,-122.419416
316,Li Yong,Director General of the Industrial Development Organization,United Nations,Over 30,Male,Non-Profit,Government,Vienna ,Austria,Europe,https://www.unido.org/who-we-are-structure-director-general/biography,48.208174,16.373819
317,Lisa Boyd,Senior Director of Corporate Responsibility and Sustainability,Target,Over 30,Female,For-Profit,General,"Minneapolis, MN",USA,North America,https://www.linkedin.com/in/lmboyd/,44.977753,-93.265011
318,Lisa Colicchio,Director of Sustainability,Metrolink,Over 30,Female,For-Profit,General,"Los Angeles, CA",USA,North America,https://www.linkedin.com/in/lisacolicchio/,34.052234,-118.243685
319,Lisa Daniell,Director of Climate Change,Ministry for the Environment,Over 30,Female,Non-Profit,Government,Auckland,New Zealand,Australia/Oceania,https://www.linkedin.com/in/lisa-daniell-5b353421/,-36.850883,174.764488
320,Lisa Jackson,"Vice President of Environment, Policy and Social Initiatives",Apple,Over 30,Female,For-Profit,,"Cupertino, CA",USA,North America,https://www.apple.com/leadership/lisa-jackson/,37.322998,-122.032182
321,Lisa Sachs,Director,Columbia Center on Sustainable Investment,Over 30,Female,For-Profit,Energy/Environmental,"New York, NY",USA,North America,https://www.linkedin.com/in/lisa-sachs-849436113/,40.712775,-74.005973
322,Lisa Walker,CEO,Ecosphere+,Over 30,Female,For-Profit,Energy/Environmental,South Nutfield,United Kingdom,Europe,https://www.linkedin.com/in/lisa-walker-0286758/,51.239766,-0.125163
323,Lucas Joppa,Chief Environmental Officer,Microsoft,Over 30,Male,For-Profit,General,"Redmond, WA",USA,North America,https://www.linkedin.com/in/lucas-joppa/,47.673988,-122.121512
324,Luis Gonzalez,Director of Advocacy,Unidad Ecológica Salvadoreña,Over 30,Male,Non-Profit,Energy/Environmental,San Salvador,El Salvador,North America,https://diario.elmundo.sv/es-una-ley-que-privatiza-lo-que-ya-esta-de-hecho/?fbclid=IwAR0j1pOdcaKOjwUpbCjf7GlNuJGtMUUpYg4f4ZF4v1CoW5IMj6VtYqngn88,13.69294,-89.218191
325,Lynelle Preston Cameron,Vice President of Sustainability; CEO of Autodesk Foundation,Autodesk,Over 30,Female,For-Profit,General,"San Francisco, CA",USA,North America,https://www.linkedin.com/in/lynelle-preston-cameron-2b11591/,37.77493,-122.419416
326,M. Sanjayan,Chief Executive Officer,Conservation International,Over 30,Male,Non-Profit,NGO,"Arlington, VA",USA,North America,"https://www.conservation.org/experts-list/m-sanjayan-phd 
https://www.linkedin.com/in/m-sanjayan-7a9593b4/ ",38.881621,-77.090981
327,Mafalda Duarte,CEO,Climate Investment Funds,Over 30,Female,Non-Profit,NGO,"Washington, D.C.",USA,North America,https://www.linkedin.com/in/mafaldaduarte1/ ,38.907192,-77.036871
328,Mahesh Ramanujam,President and CEO,US Green Building Council,Over 30,Male,Non-Profit,"NGO/Architecture, Design, Engineering","Washington, D.C.",USA,North America,https://www.linkedin.com/in/mahesh-ramanujam-a95a85a/,38.907192,-77.036871
329,Maja Göpel,Director of Research,The New Institute,Over 30,Female,Non-Profit,NGO,Berlin,Germany,Europe,https://twitter.com/beyond_ideology?lang=en,52.520007,13.404954
330,Majandra Rodriguez Acha,Co-founder,TierrActiva Peru,Under 30,Female,Non-Profit,Energy/Environmental,Lima,Peru,South America,https://www.unwomen.org/en/news/stories/2020/1/i-am-generation-equality-majandra-rodriguez-acha-youth-leader-climate-justice,-12.046373,-77.042754
331,Manuel Alonso-Martinez,Executive Director,Earth Team,Over 30,Male,Non-Profit,NGO,"El Sobrante, CA",USA,North America,https://www.linkedin.com/in/manuel-alonso-martinez-b14aa220/,37.977145,-122.295247
332,Manuel Pulgar-Vidal,Climate and Energy Global Practice Leader,WWF,Over 30,Male,Non-Profit,NGO,Lima,Peru,South America,https://www.linkedin.com/in/manuel-pulgar-vidal-68447b13/ ,-12.046373,-77.042754
333,Marcelo Furtado,Chief Sustainability Officer,ZScore,Over 30,Male,For-Profit,Energy/Environmental,Sao Paolo,Brazil,South America,https://www.linkedin.com/in/marcelo-furtado-49912861/en/?originalSubdomain=br,-23.555771,-46.639557
334,Marcelo Mena,"Former Environment Minister, Director","Climate Action Center at Pontificia Universidad Católica de Valparaíso, Chile Office of the Global Center on Adaptation",Over 30,Male,Non-Profit,Government,Santiago,Chile,South America,https://www.ted.com/speakers/marcelo_mena_carrasco,-33.44889,-70.669266
335,Margaret Kulow,Global Finance Practice Leader,WWF,Over 30,Female,Non-Profit,NGO,"Washington, D.C.",USA,North America,https://www.linkedin.com/in/margaretkuhlow/ ,38.907192,-77.036871
336,Sasha Calder,Head of Sustainability,Genomatica,Under 30,Female,For-Profit,Energy/Environmental,"San Diego, CA",USA,North America,https://www.linkedin.com/in/sashacalder/,32.715738,-117.161084
337,Maria de los Angeles Carvajal,Founder,"SuMar, Choices for Nature",Over 30,Female,Non-Profit,Conservation,Guaymas,Mexico,North America,https://www.sustainabilityleadersnetwork.org/fellows/maria-carvajal/,27.917865,-110.908938
338,María Mendiluce,CEO,We Mean Business Coalition,Over 30,Female,Non-Profit,NGO,Geneva,Switzerland,Europe,https://www.linkedin.com/in/mariamendiluce/,46.204391,6.143158
339,Marianna Grossman,Founder and Managing Partner,Minerva Ventures,Over 30,Female,For-Profit,Energy/Environmental,"Portland, OR",USA,North America,https://www.linkedin.com/in/mariannagrossman/,45.515232,-122.678385
340,Marie-Noëlle Keijzer,Co-Founder and CEO,WeForest,Over 30,Female,Non-Profit,NGO,Antwerp,Belgium,Europe,https://www.linkedin.com/in/marie-no%C3%ABlle-keijzer-68089a2/,51.219448,4.402464
341,Marie-Sylvie  Bertail,General directrice of Greenflex,Greenflex,Over 30,Female,For-Profit,,Paris,France,Europe,https://www.linkedin.com/in/marie-sylvie-bertail/,48.856614,2.352222
342,Marilyn Johnson,Senior Director of Global Sustainability,Clarivate,Over 30,Female,For-Profit,General,"Seattle, WA",USA,North America,https://www.linkedin.com/in/marilynajohnson/,47.60621,-122.332071
343,Marisa Buchanan,"Managing Director, Head of Sustainability",JP Morgan Chase & Co.,Over 30,Female,For-Profit,General,"New York, NY",USA,North America,https://www.linkedin.com/in/marisa-buchanan-2b10206/,40.712775,-74.005973
344,Mark Campanale,Founder and Executive Director,Carbon Tracker,Over 30,Male,Non-Profit,NGO,London,United Kingdom,Europe,https://www.linkedin.com/in/mark-campanale-1886203/,51.507218,-0.127586
345,Mark Rose,Chief Executive Officer,Fauna and Flora International,Over 30,Male,Non-Profit,NGO,"Pembroke Street, Cambridge",United Kingdom,Europe,"https://www.fauna-flora.org/people#:~:text=Mark%20has%20held%20the%20role,projects%20in%20over%2040%20countries.",52.202362,0.119329
346,Mark Swilling,Professor,Stellenbosch University,Over 30,Male,Non-Profit,University,Cape Town,South Africa,Africa,https://www.linkedin.com/in/mark-swilling-31b7426/,-33.924868,18.424055
347,Mark Tercek,"Chief Instigator, Former President and CEO","The Instigator, The Nature Conservancy",Over 30,Male,Non-Profit,NGO,"Washington, D.C.",USA,North America,https://www.linkedin.com/in/marktercek/ ,38.907192,-77.036871
348,Martha Hall Findlay,Chief Sustainability Officer,Suncor,Over 30,Female,For-Profit,General,Calgary,Canada,North America,https://www.linkedin.com/in/marthahallfindlay/?originalSubdomain=ca,51.044733,-114.071883
349,Martin Visbeck,Head of Research,GeoMar,Over 30,Male,For-Profit,Energy/Environmental,Kiel,Germany,Europe,https://www.linkedin.com/in/martin-visbeck-6b5b936b/,54.323293,10.122765
350,Martyn Forde,"CARILEC Renewable Energy (CAREC) Community Manager, Energy Leadership Consultant",Rocky Mountain Institute,Over 30,Male,Non-Profit,NGO,Toronto,Canada,North America,https://www.linkedin.com/in/mhdbf/  ,43.653226,-79.383184
351,Mary egbo,CEO,Mathesis Consulting,Over 30,Female,For-Profit,Energy Events,London,United Kingdom,Europe,https://www.linkedin.com/in/mary-egbo-5755132b/,51.507218,-0.127586
352,Mary Wenzel,EVP and Head of Sustainability and ESG Integration,Wells Fargo,Over 30,Female,For-Profit,General,"Denver, CO",USA,North America,https://www.linkedin.com/in/mary-wenzel-78505815/,39.739236,-104.990251
353,Mary Wroten,Director of Global Sustainability,Ford Motor Company,Over 30,Female,For-Profit,General,"Dexter, MI",USA,North America,https://www.linkedin.com/in/mary-a-wroten-34a3459/,42.33837,-83.888555
354,Massimiano Tellini,Global Head of Circular Economy,Intesa Sanpaolo Innovation Center,Over 30,Male,For-Profit,Energy/Environmental,Milan,Italy,Europe,https://www.linkedin.com/in/massimianotellini/,45.464204,9.189982
355,Matt St. Clair,Director of Sustainability,University of California - Office of the President,Over 30,Male,Non-Profit,University,"Oakland, CA",USA,North America,https://www.linkedin.com/in/matt-st-clair-e-mail-6186b0/,37.804351,-122.271164
356,Mattias Goldmann,Chief Sustainability Officer,Sweco,Over 30,Male,For-Profit,"Architecture, Design, Engineering",Stockholm,Sweden,Europe,https://www.linkedin.com/in/mattiasgoldmann/,59.329324,18.068581
357,Maureen Damen,Founder ,Rise Up Senegal,Under 30,Female,Non-Profit,Activist,Dakar,Senegal,Africa,http://bsciclimate.org/african-climate-activist-rise/,14.716677,-17.467686
358,Mauricio Graber,Chief Executive Officer,Chr. Hansen Holdings A/S,Over 30,Male,For-Profit,General,Copenhagen,Denmark,Europe,https://www.linkedin.com/in/mauricio-graber/,55.676097,12.568337
359,Apoorv Bhargava,CEO and Co-Founder,Weave Grid,Under 30,Male,For-Profit,Energy/Environmental,"San Francisco, CA",USA,North America,https://www.linkedin.com/in/apoorv-bhargava/,37.77493,-122.419416
360,Megan  Euston-Brown,Director at Sustainable Energy Africa,Director at Sustainable Energy Africa,Over 30,Female,Non-Profit,Energy,Cape Town,South Africa,Africa,https://www.irena.org/directorgeneral/biography,-33.924868,18.424055
361,Meghan Zahniser,Executive Director,AASHE,Over 30,Female,Non-Profit,Energy/Environmental,"Philadelphia, PA",USA,North America,linkedin.com/in/meghan-fay-zahniser-5616087,39.952584,-75.165222
362,Meghna Tare,Chief Sustainability Officer,University of Texas - Arlington,Over 30,Female,Non-Profit,University,"Dallas, TX",USA,North America,https://www.linkedin.com/in/meghnatare/,32.776664,-96.796988
363,Melanie Kenderdine,President,Energy Futures Initiative,Over 30,Female,Non-Profit,Energy/Environmental,"Washington, D.C.",USA,North America,https://www.linkedin.com/in/melanie-kenderdine-b13bb7bb/,38.907192,-77.036871
364,Melati Wijsen,Co-founder,Bye Bye Plastic Bags,Under 30,Female,Non-profit,NGO,Bali,Indonesia,Asia,https://www.linkedin.com/in/melati-wijsen-282057187/?originalSubdomain=id https://www.weforum.org/people/melati-wijsen,-8.340539,115.091951
365,Meredith Adler,Executive Director,Student Energy,Under 30,Female,Non-Profit,NGO,Vancouver,Canada,North America,https://www.linkedin.com/in/meredithadler/ ,49.282729,-123.120738
366,Merran Smith,Executive Director,Clean Energy Canada,Over 30,Female,Non-Profit,NGO,Victoria,Canada,North America,https://www.linkedin.com/in/merran-smith-64603b63/ ,28.805267,-97.003598
367,Michael Brune,Executive Director,Sierra Club,Over 30,Male,Non-Profit,NGO,"Oakland, CA",USA,North America,"https://www.sierraclub.org/about/executive-team
https://www.linkedin.com/in/michael-brune-6805421b/",37.804351,-122.271164
368,Michael Dorsey,Full Member,Club of Rome,Over 30,Male,Non-Profit,Energy/Environmental,"Washington, D.C.",USA,North America,https://www.linkedin.com/in/profmkd/,38.907192,-77.036871
369,Michael Gerrard,Professor,Columbia University Law School,Over 30,Male,Non-Profit,University,"New York, NY",USA,North America,https://www.linkedin.com/in/michael-gerrard-534262131/,40.712775,-74.005973
370,Michael Okoroafor,VP of Global Sustainability and Packaging Innovation,McCormick & Company,Over 30,Male,For-Profit,General,"Hunt Valley, MD",USA,North America,https://www.linkedin.com/in/michael-okoroafor-ph-d-5a07b9a9/,39.490001,-76.658507
371,Michael Otto,Chairman of the Supervisory Board,The Otto Group,Over 30,Male,For-Profit,Retail/Clothing/other,Hamburg,Germany,Europe,https://www.clubofrome.org/member/otto-michael/,53.551085,9.993682
372,Michael Rucker,CEO and Founder,Scout Clean Energy,Over 30,Male,For-Profit,Energy/Environmental,"Boulder, CO",USA,North America,https://www.linkedin.com/in/michaelwrucker/,40.014986,-105.270546
373,Michael Shellenberger,President; Former President,Environmental Progress; The Breakthrough Institute,Over 30,Male,Non-Profit,NGO,"Berkeley, CA",USA,North America,https://www.linkedin.com/in/michael-shellenberger-019631a8/ ,37.871523,-122.273042
374,Michael Terrell,Head of Energy Market Strategy,Google,Over 30,Male,For-Profit,General,"Mountain View, CA",USA,North America,https://www.linkedin.com/in/michael-terrell/,37.386052,-122.083851
375,Michel Gelobter,Managing Director,Reflective Earth,Over 30,Male,Non-Profit,NGO,"Berkeley, CA",USA,North America,https://www.linkedin.com/in/gelobter/,37.871523,-122.273042
376,Michelle Wyman,Executive Director,Global Council for Science and the Environment,Over 30,Female,Non-Profit,Energy/Environmental,"Washington, D.C.",USA,North America,linkedin.com/in/miwyman,38.907192,-77.036871
377,Mike Fraser,VP of Global Sustainability Services,Schneider Electric,Over 30,Male,For-Profit,Energy/Environmental,"Louisville, KY",USA,North America,https://www.linkedin.com/in/mnfraser/,38.252665,-85.758456
378,Mindy Lubber,President and Chief Executive Officer,Ceres,Over 30,Female,Non-Profit,NGO,"Boston, MA",USA,North America,https://www.linkedin.com/in/mindy-lubber-b113962/ ,42.360082,-71.05888
379,Minister XIE Zhenhua,Special Envoy on Climate Change,China,Over 30,Male,Non-Profit,Government,Beijing,China,Asia,https://cciced.eco/about/composition/executive-committee/xie-zhenhua/,39.9042,116.407396
380,Goksenin Ozturkeri,Vice President,CohnReznick Capital,Under 30,Male,For-Profit,Energy/Environmental,"San Francisco, CA",USA,North America,https://www.linkedin.com/in/gozturkeri/,37.77493,-122.419416
381,Mitch Jackson,Chief Sustainability Officer,FedEx Corporation,Over 30,Male,For-Profit,General,"Memphis, TN",USA,North America,https://www.linkedin.com/in/mitch-jackson-1a349814/,35.149534,-90.04898
382,Mitchell Bernard,Chief Counsel and Interim President,NRDC,Over 30,Male,Non-Profit,Government,"New York, NY",USA,North America,https://www.nrdc.org/experts/mitchell-bernard,40.712775,-74.005973
383,Mona Benisi,Global Head of Sustainability Real Assets,Morgan Stanley,Over 30,Female,For-Profit,General,"New York, NY",USA,North America,https://www.linkedin.com/in/mona-benisi-64b00b68/,40.712775,-74.005973
384,Monica Scatasta,"Director, Former Head of Division, Climate, Environment, and Social Policy","Council of Europe Development Bank, European Investment Bank",Over 30,Female,Non-Profit,Government,Luxembourg,Luxembourg,Europe,https://www.linkedin.com/in/monica-scatasta-b66089a/,49.815273,6.129583
385,Monique Oxender,Chief Sustainability Officer,Keurig Dr. Pepper,Over 30,Female,For-Profit,General,"Burlington, MA",USA,North America,https://www.linkedin.com/in/moniqueoxender/,42.504716,-71.19562
386,Moon Jae-in,President,South Korea,Over 30,Male,Non-Profit,Government,Seoul,South Korea,Asia,https://www.reuters.com/article/us-southkora-environment-greenewdeal/south-koreas-moon-targets-carbon-neutrality-by-2050-idUSKBN27D1DU,37.566535,126.977969
387,Musonda Mumba,Chief of Terrestrial Ecosystems Unit,United Nations Environment Programme,Over 30,Female,Non-Profit,Government,Nairobi,Kenya,Africa,https://www.linkedin.com/in/dr-musonda-mumba-aa09611/ ,-1.292066,36.821946
388,Myriam Coneim,Director of Sustainability,American Express,Over 30,Female,For-Profit,General,"New York, NY",USA,North America,https://www.linkedin.com/in/myriamconeim/?locale=en_US,40.712775,-74.005973
389,Nancy Pfund,Founder and Managing Partner,DBL Ventures,Over 30,Female,For-Profit,General,"San Francisco, CA",USA,North America,https://www.linkedin.com/in/nancy-pfund-30b6ab13/,37.77493,-122.419416
390,Nancy Vandycke,Program Manager,Sustainable Mobility for All,Over 30,Female,Non-Profit,NGO,"Washington, D.C.",USA,North America,https://www.linkedin.com/in/nancy-vandycke/ ,38.907192,-77.036871
391,Naoko Ishii,Former CEO,Global Environment Facility,Over 30,Female,Non-Profit,NGO,Tokyo,Japan,Asia,https://www.thegef.org/people/naoko-ishii,35.676192,139.650311
392,Natasha Landell-Mills,Head of Stewardship,Sarasin & Partners,Over 30,Female,For-Profit,Energy/Environmental,London,United Kingdom,Europe,https://www.linkedin.com/in/natasha-landell-mills-cfa-05115935/,51.507218,-0.127586
393,Nate Hurst,President of Wells Fargo Foundation; Chief Social Impact and Sustainability Officer,Wells Fargo,Over 30,Male,For-Profit,General,"Washington, D.C.",USA,North America,https://www.linkedin.com/in/natehurst/,38.907192,-77.036871
394,Nathan Hultman,Founding Director of Center for Global Sustainability,University of Maryland,Over 30,Male,Non-Profit,University,"Washington, D.C.",USA,North America,https://www.linkedin.com/in/nathan-hultman-223647/ ,38.907192,-77.036871
395,Ndidi Nnoli Edozien,Chair,Circular Economy Innovation Partnership (CEIP),Over 30,Female,Non-Profit,Research,Lagos,Nigeria,Africa,https://www.linkedin.com/in/dr-ndidi-nnoli-edozien-798649141/?originalSubdomain=ng,6.524379,3.379206
396,Ndidi Nnoli-Edozien,Chair,Circular Economy Innovation Partnership,Over 30,Female,Non-Profit,NGO,Abuja,Nigeria,Africa,https://www.linkedin.com/in/dr-ndidi-nnoli-edozien-798649141/,9.076478,7.398574
397,Ndoni Mcunu,Bilateral Engagement Lead,SouthSouthNorth,Over 30,Female,Non-Profit,Energy/Environmental,Johannesburg,South Africa,Africa,https://www.linkedin.com/in/ndoni-mcunu-015bb68b/?originalSubdomain=za,-26.204103,28.047305
398,Nestor Batio Bassiere,"Minister of Environment, Climate Change, and Green Economy",Burkina Faso (country in West Africa),Over 30,Male,Non-Profit,Government,Ouagadougou,Burkina Faso,Africa,https://www.linkedin.com/in/batio-nestor-bassiere-6036a450/?originalSubdomain=bf,12.371428,-1.51966
399,Nick Mabey,Owner,E3G,Over 30,Male,Non-Profit,NGO,London,United Kingdom,Europe,https://www.linkedin.com/in/nick-mabey-7845482/,51.507218,-0.127586
400,Nicole Becker,Co-founder,Jóvenes por el Clima Argentina (Youth for Climate Argentina),Under 30,Female,Non-Profit,Activist,Buenos Aires,Argentina,South America,https://globalclimatestrike.net/nicole-becker-19-argentina/,-34.603684,-58.381559
401,Nisakorn Kositratna,Vice Chairman,Thailand Environment Institute,Over 30,Female,Non-profit,Energy/Environmental,Nonthaburi,Thailand,Asia,http://www.tei.or.th/th/executive.php,13.862112,100.514353
402,Nomso Kana ,"Nuclear Energy Foundation agency
Governor",Nuclear Energy Foundation agency,Over 30,Female,Non-profit,,Johannesburg,South Africa,Africa,https://www.linkedin.com/in/nomso-kana-m-inst-d-18323116/?miniProfileUrn=urn%3Ali%3Afs_miniProfile%3AACoAAAM8srMBNT6_fMKBu4UVKAtpAKXLZOWSoRM,-26.204103,28.047305
403,Nuki Agya Utama,Executive Director at ASEAN Centre for Energy,ASEAN center for Energy,Over 30,Male,Non-Profit,Government,Jakarta,Indonesia,Asia,https://www.linkedin.com/in/nuki-agya-utama-phd-99450018/,-6.208763,106.845599
404,Nur Hidayati,Executive Director,Indonesian Forum for the Environment (Walhi),Over 30,Female,Non-profit,Energy/Environmental,Jakarta,Indonesia,Asia,https://www.linkedin.com/in/nur-hidayati-3048304a/,-6.208763,106.845599
405,Nzambi Matee,Founder,Gjenge Makers,Under 30,Female,For-Profit,Building Materials,Nairobi,Kenya,Africa,https://www.linkedin.com/in/nzambi-matee-gjenge2017/?originalSubdomain=ke,-1.292066,36.821946
406,Oliver Johnson,"Head of Climate, Energy and Environment",Government Office for Science,Over 30,Male,Non-Profit,NGO,London,United Kingdom,Europe,https://www.linkedin.com/in/oliverwjohnson/ https://www.sei.org/people/oliver-johnson/,51.507218,-0.127586
407,Owen Keogh,Head of Corporate Social Responsibility,Lidl Ireland and Northern Ireland,Under 30,Male,For-Profit,General,London,United Kingdom,Europe,https://www.linkedin.com/in/owen-keogh-91896560/?originalSubdomain=uk,51.507218,-0.127586
408,Paul Hawken,Author,Founder of One Generation,Over 30,Male,Non-profit,Activist,"Sausalito, CA",USA,North America,https://www.linkedin.com/in/paul-hawken-0792b/,37.859094,-122.485251
409,Paul Polman,"Former CEO, Co-Founder","Unilever, Imagine",Over 30,Male,For-Profit,Energy/Environmental,London,United Kingdom,Europe,https://www.linkedin.com/in/paulpolman/,51.507218,-0.127586
410,Paul Shrivastava,Chief Sustainability Officer,Sustainability Institute at Penn State,Over 30,Male,Non-Profit,University,"State College, PA",USA,North America,https://directory.smeal.psu.edu/pxs993,40.793395,-77.860001
411,Paul Simpson,CEO,CDP,Over 30,Male,Non-Profit,NGO,London,United Kingdom,Europe,https://www.linkedin.com/in/paulsimpsoncdp/,51.507218,-0.127586
412,Paul Torcellini,Principal Engineer,National Renewable Energy Laboratory,Over 30,Male,Non-Profit,"Government/Architecture, Design, Engineering","Golden, CO",USA,North America,https://www.linkedin.com/in/paul-torcellini-b17562209/ ,39.755543,-105.2211
413,Peggy Brannigan,"Senior Program Manager, Global Environmental Sustainability",LinkedIn,Over 30,Female,For-Profit,General,"San Francisco, CA",USA,North America,https://www.linkedin.com/in/peggybrannigan/,37.77493,-122.419416
414,Peter Bakker,President,World Business Council for Sustainable Development,Over 30,Male,Non-Profit,NGO,Geneva,Switzerland,Europe,https://www.linkedin.com/in/peter-bakker-14a13638/,46.204391,6.143158
415,Peter Vanacker,Chief Executive Officer,Neste Corporation,Over 30,Male,For-Profit,General,Helsinki,Finland,Europe,https://www.linkedin.com/in/peter-vanacker-ba954519/,60.169856,24.938379
416,Petra Kuenkel,Executive Director,Collective Leadership Institute,Over 30,Female,Non-Profit,NGO,Berlin,Germany,Europe,https://www.linkedin.com/in/petra-kuenkel/,52.520007,13.404954
417,Phil Graves,"Chief Sustainability Officer, President of Johnny Morris Foundation",Bass Pro Shops,Over 30,Male,For-Profit,General,"Springfield, MS",USA,North America,https://www.linkedin.com/in/phil-graves-1b993515/,37.208957,-93.292299
418,Pia Heidenmark Cook,Chief Sustainability Officer,IKEA,Over 30,Female,For-Profit,General,Stockholm,Sweden,Europe,https://www.linkedin.com/in/pia-heidenmark-cook-bb088042/,59.329324,18.068581
419,Pratap Raju,Founding Partner,Climate Collective,Over 30,Male,Non-Profit,NGO,Goa,India,Asia,https://www.linkedin.com/in/prpratapraju/,15.299326,74.123996
420,Pratik Gauri,Partner and India President,5th Element Group PBC,Under 30,Male,For-Profit,Energy/Environmental,Delhi,India,Asia,https://www.linkedin.com/in/pratikgauri/,28.704059,77.10249
421,Preeti Soni,"Chief of Climate Change, Resilience, and Energy",United Nations Development Programme (UNDP),Over 30,Female,Non-Profit,Government,Delhi,India,Asia,https://www.linkedin.com/in/preeti-soni-917b667/,28.704059,77.10249
422,Priscilla Achapka,Global President,Women Environmental Programme,Over 30,Female,Non-profit,Energy/Environmental,Abuja,Nigeria,Africa,https://wepnigeria.net/index.php/team/priscilla-achakpa/,9.076478,7.398574
423,Rachel Kyte,"Dean, Former CEO","The Fletcher School at Tufts University, Sustainable Energy for All",Over 30,Female,Non-Profit,University,"Medford, MA",USA,North America,https://www.linkedin.com/in/rachelkyte/,42.41843,-71.106164
424,Ralph DiNola,CEO,New Buildings Institute,Over 30,Male,Non-Profit,"NGO/Architecture, Design, Engineering","Portland, OR",USA,North America,https://www.linkedin.com/in/ralph-dinola-2092ab1/ ,45.515232,-122.678385
425,Rana Ghoneim,Chief of Energy Systems and Infrastructure Division,UNIDO,Over 30,Female,Non-Profit,Government,Vienna,Austria,Europe,https://www.linkedin.com/in/rana-ghoneim-1a5b4840/ ,48.208174,16.373819
426,Ranjit  Gupta,CEO Azure power ,Azure power ,Over 30,Male,For-Profit,Energy,Delhi,India,Asia,https://www.linkedin.com/in/ranjit-gupta-98b351/,28.704059,77.10249
427,Rebekah Moses,Director of Impact Strategy,Impossible Foods,Over 30,Female,For-Profit,Energy/Environmental,"San Francisco, CA",USA,North America,https://www.linkedin.com/in/rebekahmoses/,37.77493,-122.419416
428,Richard Fine,Founder,BioPak,Over 30,Male,For-Profit,Energy/Environmental,Sydney,Australia,Australia/Oceania,https://www.linkedin.com/in/richard-fine-6920084/,-33.86882,151.209296
429,Richard Morningstar,"Founding Chairman, Board Director","Global Energy Center, Atlantic Council",Over 30,Male,Non-Profit,NGO,"Washington, D.C.",USA,North America,https://www.albrightstonebridge.com/team/richard-morningstar,38.907192,-77.036871
430,Rick Smith,Executive Director,Broadbent Institute,Over 30,Male,Non-Profit,NGO,Toronto,Canada,North America,https://www.linkedin.com/in/rick-smith-75616b38/ ,43.653226,-79.383184
431,Rim BOUKHCHINA,Head of Sustainable Energy Policies and Member States Support Unit,RCREEE,Over 30,Female,Non-Profit,Energy/Sustainability,ben arous,Tunisia,Africa,https://www.linkedin.com/in/rim-boukhchina-99bb686b/,36.7435,10.231976
432,Riva Krut,Former Vice President and Chief Sustainability Officer (retired); Board member and Chair of Sustainability & Innovation Committee,Linde; The Metals Company,Over 30,Female,For-Profit,Energy/Environmental,"New York, NY",USA,North America,https://www.linkedin.com/in/riva-krut-37377722/,40.712775,-74.005973
433,Robert Bullard,Distinguished Professor of Urban Planning at the Barbara Jordan-Mickey Leland School of Public Affairs,Texas Southern University,Over 30,Male,Non-Profit,University,"Houston, TX",USA,North America,https://www.linkedin.com/in/robert-bullard-7b471733/,29.760427,-95.369803
434,Robert Horton,VP of Environmental Affairs and Sustainability,Dallas Fort Worth International Airport,Over 30,Male,For-Profit,General,"Irving, TX",USA,North America,https://www.linkedin.com/in/robert-horton/,32.814018,-96.948894
435,Robert O'Connor,Partner,Wilson Sonsini Goodrich & Rosati,Over 30,Male,For-Profit,Energy/Environmental,"Corte Madera, CA",USA,North America,https://www.linkedin.com/in/robert-o-connor-bba68934/,37.925481,-122.527476
436,Robert Taylor,Sustainability Director,UPM Raflatac,Over 30,Male,For-Profit,Energy/Environmental,Helsinki,Finland,Europe,https://www.linkedin.com/in/robert-taylor-micfor-31981816/,60.169856,24.938379
437,Robert Tournay,Head of Sustainability,PwC,Over 30,Male,For-Profit,General,"New York, NY",USA,North America,https://www.linkedin.com/in/robert-tournay-7913ba6a/,40.712775,-74.005973
438,Robin Kimmerer,Distinguished Teaching Professor and Director of the Center for Native Peoples and the Environment,SUNY ESF,Over 30,Female,Non-Profit,University,"Fabius, NY",USA,North America,https://www.linkedin.com/in/robin-kimmerer-10397a11/,42.82905,-75.969546
439,Robyn Seetal,Principal Consultant,IkTaar Sustainability,Over 30,Female,For-Profit,Energy/Environmental,Calgary,Canada,North America,https://www.linkedin.com/in/robyn-seetal-cpa-ca-60a5a641/ ,51.044733,-114.071883
440,Rodolfo Lacy,Environmental Directorate,OECD,Over 30,Male,Non-Profit,Government,Paris,France,Europe,https://www.linkedin.com/in/rodolfo-lacy-306b8bb2/,48.856614,2.352222
441,Rose Marcario,Board Member,Meati Foods,Over 30,Female,For-Profit,General,"Los Angeles, CA",USA,North America,https://www.linkedin.com/in/rose-marcario-06703716/,34.052234,-118.243685
442,Rose Mutiso,Research Director ,Enegy for Growth,Over 30,Female,Non-Profit,Energy/Environmental,Nairobi,Kenya,Africa,https://www.linkedin.com/in/rosemutiso/?originalSubdomain=ke,-1.292066,36.821946
443,Rosette Muhoza,Co-founder,My Green Home,Under 30,Female,For-Profit,Energy/Environmental,Kigali,Rwanda,Africa,http://mygreenhome.rw/ https://www.forbes.com/sites/davidrvetter/2021/05/27/sustainability-in-africa-how-rwandas-young-innovators-are-building-a-circular-economy/?sh=2e4b28987910,-1.944073,30.061885
444,Rosina Bierbaum,Professor of Environmental Policy and Planning Climate + Energy,University of Michigan,Over 30,Female,Non-Profit,University,"Ann Arbor, MI",USA,North America,https://seas.umich.edu/research/faculty/rosina-bierbaum ,42.280826,-83.743038
445,Ruth Yeoh,executive director,YTL Singapore Pte LTD,Over 30,Female,For-Profit,construction/Environmental,Singapore,Singapore,Asia,https://www.linkedin.com/in/ruth-yeoh-0681174/,1.352083,103.819836
446,Salah Nezar,"Global Energy & Sustainability Director - CBRE@Cisco, CA",CBRE,Over 30,Male,For-Profit,Energy/ sustainability,"San Francisco, CA",USA,North America,https://www.linkedin.com/in/salahnezar/,37.77493,-122.419416
447,Sally Uren,CEO,Forum for the Future,Over 30,Female,Non-Profit,NGO,London,United Kingdom,Europe,https://www.linkedin.com/in/dr-sally-uren-97b90624/,51.507218,-0.127586
448,Salma  Okonkwo,Chairwoman,UBI Group,Under 30,Female,For-Profit,"solar, social impact",Accra,Ghana,Africa,https://www.linkedin.com/in/salma-okonkwo-a5171b1aa/,5.603717,-0.186964
449,Sanda Ojiambo,Executive Director of the United Nations Global Compact,United Nations,Over 30,Female,Non-Profit,Government,Nairobi,Kenya,Africa,https://www.linkedin.com/in/sandaojiambo/ ,-1.292066,36.821946
450,Sandra Leibowitz,Founder and Owner,Sustainable Design Consulting,Over 30,Female,For-Profit,"Architecture, Design, Engineering","Alexandria, VA",USA,North America,https://www.linkedin.com/in/sandra-leibowitz-6504b55/,38.804836,-77.046921
451,Sandrine Dixson-Declѐve,Senior Advisor,Interel,Over 30,Female,For-Profit,General,Brussels,Belgium,Europe,https://www.linkedin.com/in/sandrine-dixson-decl%C3%A8ve-9074aa2/?originalSubdomain=be,50.85034,4.35171
452,Sarah Butler-Sloss,Founder Director,Ashden,Over 30,Female,Non-Profit,NGO,London,United Kingdom,Europe,https://www.linkedin.com/in/sarah-butler-sloss-3a310370/,51.507218,-0.127586
453,Sarah El Battouty,Chairman Founder,ECOnsult architecture,Over 30,Female,For-Profit,Architecture,Cairo,Egypt,Africa,https://www.linkedin.com/in/sarah-el-battouty-2b823081/?originalSubdomain=eg,30.04442,31.235712
454,Sarah Neff,Senior Vice President of Sustainability,Kilroy Realty Corporation,Over 30,Female,For-Profit,General,"Los Angeles, CA",USA,North America,https://www.linkedin.com/in/sara-neff-4490b214/,34.052234,-118.243685
455,Hana Kajimura,Sustainability Lead,Allbirds,Under 30,Female,For-Profit,Energy/Environmental,"San Francisco, CA",USA,North America,https://www.linkedin.com/in/hanakajimura/,37.77493,-122.419416
456,Scott Skinner,President and CEO,Clean Foundation,Over 30,Male,Non-Profit,NGO,Nova Scotia,Canada,North America,https://www.linkedin.com/in/scott-skinner-8369011/ ,44.681987,-63.744311
457,Sean Kidney,CEO,Climate Bonds Initiative,Over 30,Male,Non-Profit,NGO,London,United Kingdom,Europe,https://www.linkedin.com/in/seankidney/,51.507218,-0.127586
458,Sean O'Brien,President and Chief Executive Officer,Nature Serve,Over 30,Male,Non-Profit,NGO,"Arlington, VA",USA,North America,"http://www.natureserve.org/about-us/whos-who/key-contacts/sean-obrien-president-ceo 
https://www.linkedin.com/in/seanatnatureserve/ ",38.881621,-77.090981
459,Sean Sweeney,Director; Coordinator,"International Program on Labor, Climate & Environment at the School of Labor and Urban Studies - City University of New York; Trade Unions for Energy Democracy",Over 30,Male,Non-Profit,University,"Brooklyn, NY",USA,North America,https://www.linkedin.com/in/sean-sweeney-6484a738/ ,40.678178,-73.944158
460,Sebastian Kind,Chairman of the Board,GREENMAP,Over 30,Male,Non-profit,NGO,Brussels,Belgium,Europe,https://www.linkedin.com/in/sebastiankind/?originalSubdomain=ar,50.85034,4.35171
461,Secretary KS Wong,Secretary for the Environment,Hong Kong,Over 30,Male,Non-Profit,Government,Hong Kong,China,Asia,https://www.gov.hk/en/about/govdirectory/po/sen.htm,22.319304,114.169361
462,Selwin Hart,Special Advisor and Assistant-Secretary General,Climate Action at United Nations,Over 30,Male,Non-Profit,Government,"Washington, D.C.",USA,North America,https://www.linkedin.com/in/selwin-hart-852080136/ ,38.907192,-77.036871
463,Shalanda Baker,Deputy Director for Energy Justice ,"Office of Economic Impact and Development, US Department of Energy",Over 30,Female,Non-Profit,Government,"Washington, D.C.",USA,North America,https://www.linkedin.com/in/shalanda-baker-13a607205/,38.907192,-77.036871
464,Sharon Basel,Senior Manager of Sustainability,General Motors,Over 30,Female,For-Profit,General,"Detroit, MI",USA,North America,https://www.linkedin.com/in/sharonbasel/,42.331427,-83.045754
465,Shloka Nath,Head of Sustainability and Special Projects,Tata Trusts,Under 30,Female,Non-Profit,NGO,Mumbai,India,Asia,https://www.linkedin.com/in/shlokanath/,19.075984,72.877656
466,Sonia Aggarwal,Senior Adviser for Climate Policy and Innovation,White House,Over 30,Female,For-Profit,Energy/Environmental,"San Francisco, CA",USA,North America,https://www.linkedin.com/in/soniaaggarwal/,37.77493,-122.419416
467,Sonja Graham,CO-CEO,Global Action Plan,Over 30,Female,Non-Profit,NGO,London,United Kingdom,Europe,https://www.linkedin.com/in/sonjagraham/,51.507218,-0.127586
468,Sophie Beckham,Chief Sustainability Officer,International Paper,Over 30,Female,For-Profit,Energy/Environmental,"Ashville, NC",USA,North America,https://www.linkedin.com/in/sophie-beckham-18209957/,35.595058,-82.551487
469,Stacy Kauk,Director of Sustainability Fund,Shopify,Over 30,Female,For-Profit,General,Ontario,Canada,North America,https://www.linkedin.com/in/stacy-kauk-p-eng/,51.253775,-85.323214
470,Stephen  Nindi,Director General,National Land Use Planning Commission,Over 30,Male,Non-Profit,Government,Dar Es Salaam,Tanzania,Africa,https://www.linkedin.com/in/stephen-nindi-41125724/?originalSubdomain=tz,-6.792354,39.208328
471,Sunita Narain,Director General,Center for Science and Environment,Over 30,Female,Non-Profit,NGO,Dehli,India,Asia,https://www.cseindia.org/page/sunita-narain,28.704059,77.10249
472,Susan Chong,Founder and CEO,Greenpac,Over 30,Female,For-Profit,Energy/Environmental,Singapore,Singapore,Asia,https://www.linkedin.com/in/susan-chong-b9515623/?originalSubdomain=sg,1.352083,103.819836
473,Susannah Jaffer,Founder,ZERRIN,Under 30,Female,For-Profit,Energy/Environmental,Singapore,Singapore,Asia,https://www.linkedin.com/in/susannah-jaffer/,1.352083,103.819836
474,Suzanne DiBianca,EVP Corporate Relations and Chief Impact Officer,Salesforce,Over 30,Female,For-Profit,General,"San Francisco, CA",USA,North America,https://www.linkedin.com/in/suzannedibianca/,37.77493,-122.419416
475,Suzanne Shelton,President and CEO,Shelton Group,Over 30,Female,For-Profit,Energy/Environmental,"Knoxville, TN",USA,North America,https://www.linkedin.com/in/suzanneshelton/,35.960638,-83.920739
476,Tarja Halonen,Former President of the Republic of Finland,Republic of Finland,Over 30,Female,Non-Profit,Government,Helsinki,Finland,Europe,https://presidenthalonen.fi/en/activities/presentation/,60.169856,24.938379
477,Tasso  Azevedo,Founder,Imaflora,Over 30,Male,Non-Profit,Energy/Environmental,São Paulo,Brazil,South America,https://www.linkedin.com/in/tassoazevedo/?originalSubdomain=br  https://www.ted.com/speakers/tasso_azevedo,-23.555771,-46.639557
478,Tatiana Antonelli Abella,Sustainability Expert | Environmental Advocate | Impact & Solution Driven | Inspirational Speaker & Mentor | Changing Mindsets | Founder of Goumbook,Goumbook,Over 30,Female,For-Profit,Energy/ sustainability,Dubai,UAE,Asia,https://www.linkedin.com/in/tatianaantonelliabella/,25.204849,55.270783
479,Ted Chen,"Co-Founder, CEO, and Chief Product Architect",EverComm Singapore,Under 30,Male,For-Profit,Energy/Environmental,Singapore,Singapore,Asia,https://www.linkedin.com/in/chiuhaochen/,1.352083,103.819836
480,Tedd Saunders,Founder and Chief Executive Officer,EcoLogical Solutions,Over 30,Male,For-Profit,Energy/Environmental,"Boston, MA",USA,North America,https://www.linkedin.com/in/tedd-saunders-a883a51/,42.360082,-71.05888
481,Terri Wills,Former CEO,World Green Building Council,Over 30,Female,Non-Profit,NGO,London,United Kingdom,Europe,https://www.linkedin.com/in/terriwills/,51.507218,-0.127586
482,Tessa Khan,Director,Uplift,Over 30,Female,Non-Profit,NGO,London,United Kingdom,Europe,https://www.linkedin.com/in/tessa-khan-a42b6a48/?originalSubdomain=uk,51.507218,-0.127586
483,Theresa Mundita Lim,Executive Director,ASEAN Center for Biodiversity,Over 30,Female,Non-Profit,NGO,"Los Banos, Laguna",Philippines,Asia,https://www.linkedin.com/in/theresa-mundita-lim-7322b321/?originalSubdomain=ph,14.169912,121.244063
484,Thomas Becker,Vice President of Sustainability and Mobility,BMW Group,Over 30,Male,For-Profit,General,Munich,Germany,Europe,https://www.linkedin.com/in/thomas-becker-83805276/,48.135125,11.58198
485,Thomas Crowther,Assistant Professor of Global Ecosystem Ecology,ETH Zurich,Over 30,Male,Non-Profit,University,Zurich,Switzerland,Europe,https://www.linkedin.com/in/crowther-thomas-ecology/,47.376887,8.541694
486,Tim Brooks,VP of Environmental Sustainability and Corporate Responsibility,Lego,Over 30,Male,For-Profit,General,Billund,Denmark,Europe,https://www.linkedin.com/in/tim-brooks-48a5b09/?originalSubdomain=dk  https://www.fastcompany.com/person/tim-brooks,55.728449,9.112366
487,Tim Groser,Former Minister of Climate Change Issues,Government of New Zealand,Over 30,Male,Non-Profit,Government,Wellington,New Zealand,Australia/Oceania,https://www.linkedin.com/in/tim-groser-a35b9831/,-41.292381,174.778746
488,Tim Jackson,Professor of Sustainable Development,University of Surrey,Over 30,Male,Non-Profit,University,Guildford,United Kingdom,Europe,https://www.linkedin.com/in/tim-jackson-0b86311b/?originalSubdomain=uk,51.23622,-0.570409
489,Timothy  Skone,Senior Environmental Engineer,"U.S. Department of Energy, National Energy Technology Labratory",Over 30,Male,Non-Profit,Government,"Irwin, PA",USA,North America,https://www.linkedin.com/in/timothy-skone-b3578479/,40.324514,-79.701155
490,Tom Steyer,Founder,NextGen America,Over 30,Male,Non-Profit,NGO,"San Francisco, CA",USA,North America,https://www.linkedin.com/in/tomsteyer/,37.77493,-122.419416
491,Tony Davis,Chief Executive Officer and Chief Information Officer,Inherent Group,Over 30,Male,For-Profit,Energy/Environmental,"New York, NY",USA,North America,https://www.inherentgroup.com/team/,40.712775,-74.005973
492,Tony Reames,Assistant Professor of Energy Justice,School for Environment and Sustainability at the University of Michigan,Over 30,Male,Non-Profit,University,"Ann Arbor, MI",USA,North America,https://www.linkedin.com/in/tonygreames/,42.280826,-83.743038
493,Valerie Smith,Chief Sustainability Officer,CitiBank,Over 30,Female,For-Profit,General,"New York, NY",USA,North America,https://www.linkedin.com/in/valerie-smith-98aa326/,40.712775,-74.005973
494,Vanessa Nakate,Founder,Rise Up Movement,Under 30,Female,Non-Profit,NGO,Kampala,Uganda,Africa,https://www.linkedin.com/in/vanessa-nakate-09156889/,0.347596,32.58252
495,Varsha Chandralal,Sustainability | Environmental | LEED Green Associate | GSAS - CGP ( CM and D&B) | IGBC AP,Qatar Green Leaders,Under 30,Female,Non-profit,Energy/ sustainability,Doha,Qatar,Asia,https://www.linkedin.com/in/varsha-chandralal-2a079682/,25.285447,51.53104
496,Alexsandra Guerra,Co-Founder and Director of Corporate Development,Nori,Under 30,Female,For-Profit,Energy/Environmental,"Seattle, WA",USA,North America,https://www.linkedin.com/in/alexsandraguerra/,47.60621,-122.332071
497,Varun Sivaram,Visiting Senior Fellow,Columbia University SIPA Center for Global Energy Policy,Over 30,Male,Non-Profit,University,"Washington, D.C.",USA,North America,https://www.linkedin.com/in/varunsivaram/,38.907192,-77.036871
498,Vicente Ferreyra Acosta,CEO ,Sustentur,Over 30,Male,For-Profit,General,Quintana Roo,Mexico,North America,https://www.linkedin.com/in/vicenteferreyra/ https://sustainability-leaders.com/directory/sustentur/,19.181739,-88.479138
499,Vicky Sharpe,Member Board of Directors; Former President and CEO,EfficiencyOne; Sustainable Development Technology Canada,Over 30,Female,Non-Profit,NGO,Nova Scotia,Canada,North America,https://www.linkedin.com/in/vicky-sharpe-3b584051/ ,44.681987,-63.744311
500,Vien Truong,Senior Director of Engagement and Global Sustainability,Nike,Over 30,Female,For-Profit,General,"San Francisco, CA",USA,North America,https://www.linkedin.com/in/vien-truong-40109118/,37.77493,-122.419416
501,"Vincent Pérez, Jr.",Chairman; Former Secretary,Alternergy and Solar Pacific; Philippine Department of Energy,Over 30,Male,For-Profit,Energy/Environmental,Manila,Philippines,Asia,https://www.linkedin.com/in/vince-s-perez-1287968/?originalSubdomain=ph,14.599512,120.98422
502,Vincent Roche,President and Chief Executive Officer,Analog Devices,Over 30,Male,For-Profit,General,"Norwood, MA",USA,North America,https://investor.analog.com/governance/leadership-team https://www.bloomberg.com/profile/person/4759894,42.194391,-71.19897
503,Virginie Helias,Chief Sustainability Officer,Proctor and Gamble,Over 30,Female,For-Profit,General,Geneva,Switzerland,Europe,https://www.linkedin.com/in/virginiehelias/,46.204391,6.143158
504,Viviana Alvarez Sanchez,Head of Sustainability,North America Unilever ,Over 30,Female,For-Profit,General,"New York, NY",USA,North America,https://www.linkedin.com/in/viviana-alvarez-sanchez-6a21b43a/,40.712775,-74.005973
505,Volker Quaschning,Professor of Renewable Energy Systems,NTW Berlin,Over 30,Male,Non-Profit,University,Berlin,Germany,Europe,https://www.linkedin.com/in/quaschning/?originalSubdomain=de,52.520007,13.404954
506,Wanjira Mathai,Vice President and Regional Director,World Resources Institute (WRI),Over 30,Female,Non-Profit,,Nairobi,Kenya,Africa,https://www.wri.org/profile/wanjira-mathai,-1.292066,36.821946
507,Wawira Njiru,Founder and Executive Director,Food for Education,Under 30,Female,Non-Profit,NGO - Food,Nairobi,Kenya,Africa,https://twitter.com/wawiranjiru?lang=en,-1.292066,36.821946
508,Wayne Omonuwa,Nigeria Energy Lead,Rocky Mountain Institute,Under 30,Male,Non-Profit,NGO,Reading,United Kingdom,Europe,https://www.linkedin.com/in/wayne-omonuwa-consultant/,40.335648,-75.926875
509,"Wenchun Zheng
",Founder of Blue Ribbon Ocean Conservation,Blue Ribbon Ocean Conservation,Over 30,Male,Non-profit,Government/envrionmental ,Hainan,China,Asia,http://www.ch-blueocean.org,19.566395,109.949686
510,Wenonah Hauter,Founder and Executive Director,Food and Water Watch,Over 30,Female,Non-Profit,NGO,"Washington, D.C.",USA,North America,https://www.foodandwaterwatch.org/staff/board-of-directors/,38.907192,-77.036871
511,William Kamkwamba,Co-founder,Moving Windmills Project,Under 30,Male,Non-Profit,Energy/Environmental,Wimbe ,Malawi,Africa,https://www.ted.com/speakers/william_kamkwamba https://movingwindmills.org/,42.202064,-71.255791
512,William Sisson,Executive Director,World Business Council for Sustainable Development,Over 30,Male,Non-Profit,NGO,"Avon, CT",USA,North America,https://www.linkedin.com/in/wsissonwbcsd/,41.80962,-72.830515
513,Wouter  van Tol,"Head of Government, Community Affairs, and Sustainability",DS Smith,Over 30,Male,For-Profit,Energy/Environmental,London,United Kingdom,Europe,https://www.linkedin.com/in/woutervantol/,51.507218,-0.127586
514,Wu Changhua,CEO,Beijing Future Innovation Center,Over 30,Female,Non-Profit,NGO,Beijing,China,Asia,https://www.linkedin.com/in/changhua-wu-a9495237/,39.9042,116.407396
515,Xi Jinping,President,China,Over 30,Male,Non-Profit,Government,Zhongnanhai,China,Asia,https://www.google.com/url?q=https://www.edf.org/media/president-xi-jinping-reaffirms-chinas-climate-commitment&sa=D&source=editors&ust=1629240860985000&usg=AOvVaw2I0rEzNHumAXC-FBGJ3ZmU,44.0616,12.572518
516,Holly Beale,"Program Manager, Datacenter Environmental Sustainability",Microsoft,Under 30,Female,For-Profit,General,"Seattle, WA",USA,North America,https://www.linkedin.com/in/hollybeale/,47.60621,-122.332071
517,Alexandria Ocasio-Cortez,U.S. Representative for NY-14,U.S. Congress,Under 30,Female,Non-Profit,Government,"Washington, D.C.",USA,North America,https://twitter.com/AOC?ref_src=twsrc%5Egoogle%7Ctwcamp%5Eserp%7Ctwgr%5Eauthor,38.907192,-77.036871
518,"Yangshengjing ""UB"" Qiu",Partnership Development Executive,Green Monday,Under 30,Female,For-Profit,Energy/Environmental,Shanghai,China,Asia,https://www.linkedin.com/in/yangshengjingqiu/?originalSubdomain=cn,31.230416,121.473701
519,Yasmin Rasyid,Founder/President,EcoKnights,Over 30,Female,Non-Profit,Enviromental ,Kuala Lumpur,Malaysia,Asia,https://www.linkedin.com/in/yasminrasyid/,3.139003,101.686855
520,Yasmine Fouad,Minister of Environment,Arabic Republic of Egypt,Over 30,Female,Non-Profit,Government,Cairo,Egypt,Africa,http://africa.rmcge.org/speakers/dr-yasmine-fouad/,30.04442,31.235712
521,Youba Sokona,Coordinator of the African Climate Policy Centre,United Nations Economic Commission for Africa (UNECA),Over 30,Male,Non-Profit,Government,Bamako,Mali,Africa,https://www.linkedin.com/in/youba-sokona-01b1b721/,12.639232,-8.002889
522,Yuming Hui,China Director,The Climate Group,Over 30,Male,Non-Profit,NGO,Beijing,China,Asia,https://www.linkedin.com/in/yuming-hui-8066349/?originalSubdomain=cn,39.9042,116.407396
523,Zeke Hausfather,Director of Climate and Energy,The Breakthrough Institute,Over 30,Male,Non-Profit,NGO,"San Francisco, CA",USA,North America,https://www.linkedin.com/in/zeke-hausfather-7327699/ ,37.77493,-122.419416
524,Zhang Boju,Director General,Friends of Nature,Over 30,Male,Non-profit,Energy/Environmental,Beijing,China,Asia,https://www.sixthtone.com/news/1007147/battles-lost%2C-wars-won-an-environmentalists-story,39.9042,116.407396
525,Zitouni Ould-Dada,"Deputy Director of Climate Change, Biodiversity, and Environment",Food and Agriculture Organization of the United States,Over 30,Male,Non-Profit,Government,Paris,France,Europe,https://www.linkedin.com/in/zitouni-ould-dada-71170543/,48.856614,2.352222